region,name,address,x,y,url,summary,atmosphere,purpose,taste,companion,menu,main_dessert,main_coffee,parking
나주,비클래시,전남 나주시 노안면 학산리 544-1,126.75254583808493,35.06421344998641,http://place.map.kakao.com/62528423,"나주에 위치한 대형 베이커리 카페 비클래시는 승촌보 인근에 자리하고 있으며, 아름다운 주변 풍경과 함께 다양한 디저트를 즐길 수 있는 곳입니다. 넓은 주차 공간을 갖추고 있어 방문이 편리하며, 특히 수제 케이크와 파이류가 인기입니다.",감성적인; 넓은; 뷰맛집; 자연; 조용한; 편안한,가족; 데이트; 드라이브; 디저트; 친구; 카페 투어,달달한; 담백한; 맛있는; 수제; 신선한,가족; 연인; 친구; 혼자,차; 커피; 케이크; 크로와상; 타르트; 파이,수제케이크; 체리파이,바닐라라떼,주차 가능; 주차 넓음
나주,월하당,전남 나주시 봉황로 110-39,126.727934423437,34.9814648520915,http://place.map.kakao.com/108650546,"나주에 위치한 월하당은 아이, 반려견 동반이 모두 가능한 넓은 대형 카페입니다. 커피와 티 종류가 다양하며, 소금빵, 당근 케이크 등 다양한 디저트와 베이커리 메뉴를 맛볼 수 있습니다. 감성적인 인테리어와 넓은 공간, 정원을 갖추고 있어 편안한 시간을 보낼 수 있습니다.",감성적인; 넓은; 대형; 예쁜; 편안한; 핑크뮬리,데이트; 디저트; 아이 동반; 애견 동반; 카페 투어; 휴식,고소한; 달달한; 신선한; 조화로운; 진한,가족; 반려동물 동반; 아이 동반; 연인; 친구·지인; 혼자,블렌딩티; 생과일주스; 소금빵; 케이크; 쿠키; 크로플,당근케이크; 레어치즈케이크; 소금빵,아메리카노; 월하당라떼; 카페라떼,주차 가능; 주차 넓음
나주,리비에르,전남 나주시 남평읍 강변1길 76,126.848910128723,35.0459999511229,http://place.map.kakao.com/1574332115,"나주 드들강변에 위치한 대형 카페 리비에르는 탁 트인 통창과 아름다운 강변 뷰를 자랑합니다. 다양한 디저트와 음료를 즐길 수 있으며, 넓은 공간과 편리한 좌석 구성으로 편안한 시간을 보낼 수 있습니다. 특히 일몰 시간에 방문하면 환상적인 풍경을 감상할 수 있습니다.",감성적인; 뷰 맛집; 탁 트인; 편안한,가족 모임; 나들이; 디저트; 카페 투어,달달한,가족; 어린이 동반,빵; 음료; 주스; 커피; 케이크,디저트; 케이크,커피,주차 가능
나주,데일리박스,전남 나주시 교육길 14,126.77820201188457,35.01846601583319,http://place.map.kakao.com/1100180383,"나주 동신대학교 한방병원 1층에 위치한 데일리박스는 넓은 주차 공간과 함께 다양한 종류의 갓 구운 빵을 제공하는 베이커리 카페입니다. 식빵, 소금빵, 케이크 등 다채로운 디저트와 함께 커피 메뉴도 즐길 수 있으며, 디카페인 변경도 가능합니다.",넓은 주차장; 트렌디한; 편안한,가족 나들이; 디저트; 빵 쇼핑; 친구 만남; 카페 투어,갓 구운; 다양한; 신선한,가족; 친구·지인,디저트; 소금빵; 식빵; 커피; 케이크; 호두과자,소금빵; 큐브식빵,라떼; 아메리카노,주차 가능; 주차 넓음
나주,동그라미테이블,전남 나주시 쌍산3길 21,126.79569764266974,35.02820456907674,http://place.map.kakao.com/1855787129,"나주 빛가람동에 위치한 동그라미테이블은 브런치, 디저트, 음료, 와인까지 즐길 수 있는 감성적인 브런치 카페입니다. 깔끔하고 예쁜 인테리어와 좋은 분위기로 데이트 코스로도 적합하며, 가게 주변에 주차 공간이 넉넉하고 반려동물 동반이 가능합니다.",감성적인; 깔끔한; 데이트하기좋은; 예쁜; 조용한,데이트; 디저트; 모임; 브런치; 차마시기,맛있는; 시그니처디저트; 풍미가득한,가족; 반려동물 동반; 연인; 친구·지인,디저트; 브런치; 와인; 음료; 커피; 파스타,시그니처 디저트,커피,가게 주변 주차가능; 주차 널널
나주,설빙 전남나주혁신도시점,전남 나주시 배멧1길 50,126.79114596926786,35.020760454246336,http://place.map.kakao.com/25782002,"나주혁신도시에 위치한 여러 카페들은 깔끔하고 따뜻한 분위기와 함께 다양한 음료와 디저트를 판매하고 있습니다. 특히 크로플, 케이크 등 시그니처 메뉴가 인기이며, 일부 카페는 반려동물 동반 및 주차도 가능합니다.",감성적인; 깔끔한; 넓은; 따뜻한; 이국적인,데이트; 디저트; 수다; 커피; 휴식,달달한; 맛있는,반려동물 동반; 연인; 친구·지인,샌드위치; 스무디; 커피; 케이크; 쿠키; 크로플,케이크; 크로플; 티그레,커피,주차 가능; 주차 협소
나주,마마스롱,전남 나주시 남평읍 강변1길 65-13,126.849218661038,35.0439145515652,http://place.map.kakao.com/214073367,"나주 지역 여러 카페들은 딸기 티라미수 케이크, 바질 크림치즈 베이글, 잠봉 소금빵 등 다양한 디저트와 음료를 제공합니다. 일부 카페는 멋진 풍경이나 예쁜 정원을 갖추고 있으며, 주차 지원이나 대중교통 이용 정보를 제공하기도 합니다.",감성적인; 예쁜; 조용한; 편안한; 힙한,간식; 데이트; 디저트; 수다; 카페 투어,고소한; 달달한; 바삭한; 신선한; 진한,가족; 연인; 친구·지인; 혼자,마카롱; 베이글; 샌드위치; 케이크; 쿠키; 크로플,딸기 티라미수; 마카롱; 소금빵,라떼; 아메리카노,정보 없음; 주차 가능; 주차 지원
나주,스윗데이즈,전남 나주시 문화로 81,126.7743437350428,35.01023652500368,http://place.map.kakao.com/1596785126,"나주혁신도시에 위치한 스윗데이즈는 명란감자소금빵과 반미소금빵 등 큼직한 디저트 메뉴를 제공하는 브런치 카페입니다. 커피 맛도 좋고 다양한 디저트가 준비되어 있으며, 친절한 서비스와 앤틱한 인테리어가 특징입니다.",감성적인; 앤틱한; 조용한; 편안한,가벼운 식사; 디저트; 브런치; 카페 투어,고소한; 달달한; 부드러운,연인; 친구·지인; 혼자,라떼; 소금빵; 에이드; 커피; 케이크,반미소금빵; 소금빵,라떼,S타워 지하주차장
나주,투벤,전남 나주시 함박산길 11,126.721764158294,35.0403505261743,http://place.map.kakao.com/470850143,"2023년 한국 소비자 산업평가 카페 디저트 부문 우수상 수상 경력이 있는 나주 대형 카페 투벤은 국내산 유기농 밀가루와 좋은 재료로 만든 다양한 빵을 맛볼 수 있습니다. 통창으로 시원한 뷰를 감상할 수 있으며, 애견 동반 시 외부 공간 이용이 가능합니다.",감성적인; 넓은; 대형; 시원한; 통창뷰,나들이; 단체 모임; 디저트; 반려동물 동반; 카페 투어,다양한; 신선한; 유기농,단체; 반려동물 동반; 혼자,디저트; 빵; 음료,빵,,넓음; 주차 가능
나주,세컨플로어,전남 나주시 호수로 68,126.78992796336,35.0133129628059,http://place.map.kakao.com/1723439310,나주 혁신도시에 위치한 세컨플로어는 통창 뷰와 함께 맛있는 빙수와 케이크 등 다양한 디저트를 즐길 수 있는 가성비 좋은 카페입니다. 편안한 분위기에서 커피와 디저트를 맛보며 여유로운 시간을 보내기 좋습니다.,감성적인; 통창뷰; 편안한,가벼운 점심; 데이트; 디저트; 카페 투어,달달한; 맛있는; 신선한,연인; 친구·지인; 혼자,브라우니; 빙수; 커피; 케이크; 쿠키; 파르페,망고빙수; 바스크 치즈케이크; 케이크,아이스 콜드브루,갓길 주차
나주,몽파리디저트가게,전남 나주시 우정로 72,126.78711617720697,35.023636059472615,http://place.map.kakao.com/1369805358,"나주에 위치한 몽파리는 바삭한 휘낭시에 등 프랑스식 디저트를 맛볼 수 있는 곳으로, 깔끔한 포장과 친절한 서비스를 제공합니다. 내부 분위기가 좋고 주차도 편리하여 나주 디저트 카페로 추천할 만합니다.",깔끔한; 아늑한; 프랑스식,디저트; 카페 투어; 커피,달콤한; 바삭한,친구·지인; 혼자,디저트; 커피; 휘낭시에,휘낭시에,,가게 앞; 건물 내 3시간 무료
나주,디저트39 나주빛가람점,전남 나주시 배멧3길 5-4,126.785666137831,35.0187390238933,http://place.map.kakao.com/1808122835,"나주에 위치한 디저트39는 호수공원 근처에 자리하며 지하 주차가 가능하고 포장 및 배달 서비스도 제공합니다. 공간 분리가 잘 되어 답답함 없이 넓게 느껴지며, 늦은 시간까지 영업하는 것이 특징입니다. 39-17마중은 나주배를 활용한 다양한 음료와 디저트를 선보이는 복합문화공간으로, 고택의 정취와 함께 다채로운 체험을 즐길 수 있습니다.",감성적인; 고풍스러운; 넓은; 모던한; 복합문화공간; 조용한,가족; 데이트; 디저트; 모임; 수다; 카페 투어,고소한; 달달한; 신선한; 진한,가족; 반려동물 동반; 어린이 동반; 연인; 친구·지인,라떼; 마카롱; 샌드위치; 아메리카노; 케이크; 크로플,나주배 양갱; 케이크; 쿠키,나주배 드링크; 라떼; 바나나 우유 라떼; 아메리카노,가게 앞 주차; 정보 없음; 지하 주차 가능
나주,요거트아이스크림의정석 나주혁신점,전남 나주시 상야4길 16-16,126.79306980869,35.0238924331644,http://place.map.kakao.com/1382430510,"요거트 아이스크림의 정석, 요아정은 크리미한 아이스크림과 생과일 토핑, 꿀의 조화가 훌륭한 디저트 전문점입니다. 다양한 지점이 있으며, 아이스크림 추가 증정 등 프로모션을 진행하기도 합니다.",감성적인; 디저트 전문점,디저트; 후식,달달한; 크리미한,가족; 연인; 친구·지인,빵; 요거트 아이스크림; 케이크,요거트 아이스크림,,정보 없음
나주,인스틸 커피,전남 나주시 상야1길 8,126.785983032166,35.0220097834849,http://place.map.kakao.com/446651964,"나주 빛가람동에 위치한 인스틸은 커피와 다양한 종류의 케이크, 구움과자를 맛볼 수 있는 디저트 카페입니다. 아늑하고 편안한 분위기에서 여유로운 시간을 보내거나 테이크아웃하기 좋습니다. 나주사랑상품권 사용도 가능하며, 생일 케이크 주문도 가능합니다.",감성적인; 깔끔한; 모던한; 아늑한; 편안한,데이트; 디저트; 카페 투어; 커피; 포장; 혼자,겉바속촉; 고소한; 꾸덕한; 달달한; 부드러운; 진한,연인; 친구·지인; 혼자,구움과자; 마카롱; 에그타르트; 커피; 케이크; 휘낭시에,에그타르트; 케이크; 휘낭시에,쑥슈페너; 아메리카노; 아인슈페너; 콜드브루; 크림라떼,가게 앞; 골목
나주,치오베이크,전남 나주시 그린로 335,126.794252643405,35.0162480505858,http://place.map.kakao.com/3578391,"나주 혁신도시에 위치한 '치오베이크'는 컵케이크와 휘낭시에 등 다양한 수제 디저트를 맛볼 수 있는 디저트 맛집입니다. 아담하지만 감성적인 인테리어와 친절한 사장님의 응대가 돋보이며, 혼자 방문하거나 친구와 함께 방문하기 좋습니다. 가격대는 프랜차이즈 카페와 비슷하거나 약간 높은 편이지만, 퀄리티 있는 디저트로 만족감을 선사합니다.",감성적인; 깔끔한; 아늑한; 아담한; 편안한,디저트; 선물; 수다; 카페 투어,고소한; 달달한; 상큼한; 진한,가족; 연인; 친구·지인; 혼자,디저트; 커피; 컵케이크; 케이크; 쿠키; 휘낭시에,컵케이크; 휘낭시에,,주변 주차
나주,욘더스콘 나주점,전남 나주시 상야2길 16,126.787887397207,35.0220104226627,http://place.map.kakao.com/882437817,"나주혁신도시에 위치한 욘더스콘 나주점은 부드러운 스콘과 맛있는 커피를 즐길 수 있는 디저트 카페입니다. 다양한 종류의 스콘과 직접 만든 과일청, 잼을 사용한 음료가 인기 있으며, 감성적인 인테리어와 편안한 분위기를 자랑합니다.",감성적인; 분위기 좋은; 편안한,데이트; 디저트; 친구·지인; 카페 투어,달달한; 맛있는; 부드러운; 진한,가족; 연인; 친구·지인; 혼자,브라우니; 스콘; 커피; 케이크; 티,브라우니; 스콘; 얼그레이스콘,아메리카노; 카페라떼,3시간 무료
나주,아띠당,전남 나주시 배멧1길 36,126.79140206840238,35.01958279306347,http://place.map.kakao.com/1759234147,"나주혁신도시에 위치한 마카롱 카페 '아띠당'은 수제 마카롱과 디저트를 판매하며, 특히 수박 디저트는 달고 맛있다는 평입니다. 주차는 3시간 무료로 편리하게 이용 가능합니다.",달콤한; 영롱한; 차분한,디저트; 수다; 카페 투어,달달한; 맛있는,친구·지인,디저트; 마카롱; 케이크,마카롱; 수박 디저트,,3시간 무료; 주차 편리
나주,도도한,전남 나주시 빛가람로 680,126.786192502342,35.0206752116792,http://place.map.kakao.com/941107253,"우리쌀 100%로 치즈가 가득한 십원빵과 피자가 맛있는 카페입니다. 뜨끈한 십원빵을 바로 먹을 수 있으며, 반려견 동반도 가능합니다. 앤티크한 인테리어의 공간에서 커피와 디저트를 즐길 수 있습니다.",앤티크한; 편안한,디저트; 이색 디저트,고소한; 치즈가 가득한,반려동물 동반,십원빵; 커피; 피자,십원빵,,정보 없음
나주,사모하다,전남 나주시 석전2길 60-1,126.777096073326,35.0246699765882,http://place.map.kakao.com/1003738497,"이 카페는 아메리카노와 디저트가 맛있으며, 약 2.9만원의 가격대에 형성되어 있습니다. 반려견 동반이 가능한 점이 특징이며, 조용하고 예쁜 동네에 위치해 있습니다.",예쁜; 조용한,디저트; 반려동물 동반,달달한; 맛있는,반려동물 동반; 친구·지인,디저트; 아메리카노,,아메리카노,정보 없음
나주,요거트월드 나주혁신점,전남 나주시 상야1길 7,126.785872911028,35.0226405537826,http://place.map.kakao.com/1405696671,GT커피 나주혁신점은 알록달록 예쁜 비주얼의 스무디와 꾸덕한 황치즈 버터바 등 다양한 디저트를 맛볼 수 있는 대형 신상 카페입니다. 24시까지 운영하며 넓고 쾌적한 공간에서 음료와 디저트를 즐기기 좋습니다.,넓은; 대형카페; 쾌적한,디저트; 친구·지인; 카페 투어,꾸덕한; 달달한; 신선한,가족; 연인; 친구·지인,라떼; 샌드위치; 스무디; 요거트; 케이크,블루베리케이크; 얼그레이 쇼콜라; 황치즈 버터바,GT시그니처 라떼; 제주말차라떼,주차 가능; 지상주차장; 지하주차장
나주,달빛가원,전남 나주시 나주로 83-4,126.71673740342828,35.026565889513336,http://place.map.kakao.com/151803743,"달빛가원은 시즌 케이크와 블루베리 요거트 스무디 등 다양한 음료와 디저트를 맛볼 수 있는 나주 카페입니다. 친절한 사장님과 합리적인 가격, 예약 필수인 점이 특징이며, 편안한 분위기에서 디저트와 음료를 즐기기 좋습니다.",감성적인; 유럽풍; 편안한,데이트; 디저트; 카페 투어,달달한; 신선한; 진한,가족; 연인; 친구·지인,꽃차; 스무디; 아메리카노; 케이크,딸기케이크; 메론케이크; 바스크 치즈 케이크,아메리카노,근처 공영주차장
나주,오하요디저트,전남 나주시 북망문길 22,126.716575835262,35.0378173749822,http://place.map.kakao.com/156129449,"다양한 종류의 도넛과 디저트를 맛볼 수 있는 남영동의 디저트 카페입니다. 주택을 개조하여 아기자기한 인테리어를 갖추고 있으며, 일본식 도넛을 맛볼 수 있습니다. 나주 지역에도 여러 디저트 카페가 있으며, 일부 카페는 아이와 함께 방문하기 좋고, 넓은 공간과 다양한 디저트 메뉴를 갖추고 있습니다.",감성적인; 넓은 공간; 아기자기한; 편안한,디저트; 수다; 아이와 함께; 카페 투어,달달한; 담백한; 푹신한,가족; 아이 동반; 연인; 친구·지인,도넛; 롤케이크; 스콘; 에그타르트; 케이크; 휘낭시에,도넛; 스콘,카페라떼; 커피,정보 없음
나주,아스테로이드651,전남 나주시 봉황면 금봉로 651,126.794545089033,34.9623656694999,http://place.map.kakao.com/77696060,"여러 카페 정보 중 일부는 디저트와 음료, 애프터눈 티 세트 등을 제공하며, 일부는 모던 한식 디너 세트도 판매합니다.  다양한 지역에 위치하며, 일부는 넓은 테이블을 갖춘 곳도 있습니다.",모던한,디저트; 애프터눈티,,,디저트; 빙수; 애프터눈티세트; 음료; 한식디너세트,,,정보 없음
나주,하이그릭,전남 나주시 빛가람로 679,126.78611543615695,35.021657578079605,http://place.map.kakao.com/940589289,"다양한 종류의 그릭요거트와 디저트, 음료를 즐길 수 있는 카페입니다. 긍정적인 분위기와 친절한 서비스, 그리고 매력적인 공간 구성으로 많은 방문객들의 만족도를 높이고 있습니다.",감성적인; 깔끔한; 모던한; 아늑한; 조용한; 편안한,데이트; 디저트; 수다; 카페 투어; 휴식,고소한; 꾸덕한; 달달한; 새콤한; 신선한,가족; 반려동물 동반; 연인; 친구·지인; 혼자,그릭요거트; 베이글; 샌드위치; 케이크; 쿠키; 크로플,그릭요거트,라떼; 아메리카노,정보 없음
나주,어컵오브어데이,전남 나주시 우정로 56,126.78625248326,35.0237309887743,http://place.map.kakao.com/1609797214,"해방촌에 위치한 어컵오브굳은 깔끔하고 세련된 인테리어와 조용하고 아늑한 분위기를 자랑하는 카페입니다. 특히 맛있는 디저트와 다양한 음료 메뉴를 즐길 수 있으며, 편안한 대화 공간으로 데이트 장소로도 추천됩니다.",감성적인; 세련된; 아늑한; 조용한; 편안한,데이트; 디저트; 수다; 카페 투어,깔끔한; 달달한; 맛있는,연인; 친구·지인; 혼자,디저트; 라떼; 밀크티; 아메리카노; 에이드; 플랫화이트,스콘; 테린느,라떼; 아메리카노; 플랫화이트,정보 없음
나주,달롱도르요거트아이스크림 나주점,전남 나주시 그린로 197,126.788014626172,35.0096491334608,http://place.map.kakao.com/134470363,"나주 영산포 벚꽃 카페파밀리에서는 달콤한 생딸기 주스가 인기이며, 상무지구 달롱도르에서는 자몽과 파인애플 요거트 아이스크림이 맛있는 곳입니다.",달콤한; 벚꽃,디저트; 음료,달콤한; 신선한,정보 없음,생딸기 주스; 요거트 아이스크림,요거트 아이스크림,,정보 없음
나주,카페아마블레,전남 나주시 배멧3길 19-7,126.785979127334,35.0197238814849,http://place.map.kakao.com/747169786,"나주 빛가람동에 위치한 카페 아마블레는 인기 디저트 맛집으로, 협소하지만 개인 카페로 큰 편에 속합니다. 주문 즉시 제작되는 레터링 케이크는 빠른 응대와 함께 만족스러운 맛을 선사하며, 다양한 디저트와 커피 메뉴를 즐길 수 있습니다.",감성적인; 개인 카페; 아기자기한; 예쁜; 조용한; 편안한,간식; 데이트; 디저트; 수다; 카페 투어; 케이크,고소한; 달달한; 담백한; 신선한; 진한; 푹신한,가족; 반려동물 동반; 어린이 동반; 연인; 친구·지인; 혼자,롤케이크; 마카롱; 아메리카노; 케이크; 크로플; 휘낭시에,레터링 케이크; 케이크; 쿠키,아메리카노,주차 가능; 주차 협소
나주,버터퀸즈 송월본점,전남 나주시 빛가람로 36,126.71822100289752,35.01637207086003,http://place.map.kakao.com/537333039,"고급 재료를 사용한 다양한 디저트와 음료를 즐길 수 있는 카페들이 소개됩니다. 케이크, 크루아상, 버터바 등 다채로운 메뉴와 함께, 커피 맛집으로 알려진 곳도 있어 취향에 따라 선택할 수 있습니다.",감성적인; 넓은; 모던한; 아기자기한; 편안한; 힙한,간식; 데이트; 디저트; 수다; 친구·지인; 카페 투어,고소한; 달달한; 부드러운; 신선한; 진한; 풍부한,가족; 연인; 친구·지인; 혼자,버터바; 빙수; 샌드위치; 스콘; 케이크; 크루아상,누네띠네 크루아상; 버터바; 티그레,라떼; 밀크티; 시그니처 라떼; 아메리카노,가게 앞 2~3대; 정보 없음; 주차 가능; 주차 협소
나주,카페수,전남 나주시 풍물시장2길 26,126.708268969457,34.9933066135597,http://place.map.kakao.com/1208049749,"광교 카페 수나는 길가에서 바로 보여 주차 공간 4칸이 마련되어 있어 편리하다. 맛있는 디저트와 디카페인 아이스 아메리카노를 즐길 수 있으며, 집 근처라면 단골이 될 만한 곳이다.",깔끔한; 편안한,디저트; 카페 투어; 커피,달달한; 커피,연인; 친구·지인; 혼자,디저트; 아메리카노,디저트,아메리카노,가게 앞 4대; 주차 가능
나주,도도한 1호점,전남 나주시 상야2길 22,126.788048723562,35.021487003833,http://place.map.kakao.com/1911157477,"100% 우리쌀로 만든 치즈 십원빵이 인기인 곳으로, 기본과 피자 십원빵 모두 맛있습니다. 뜨끈한 빵을 바로 먹을 수 있으며, 디저트와 커피 메뉴도 다양합니다. 아기자기하고 앤티크한 인테리어가 돋보이며, 낮과 밤 모두 아름다운 공간입니다.",감성적인; 아기자기한; 앤티크한; 편안한,가벼운 식사; 데이트; 디저트; 카페 투어,고소한; 달달한; 진한,가족; 어린이 동반; 연인; 친구·지인,십원빵; 와플; 커피; 케이크; 크로와상,십원빵; 케이크,커피,정보 없음
나주,스타샵 나주송월점,전남 나주시 남고문로 36-16,126.714953723552,35.0268086899412,http://place.map.kakao.com/930677848,하라커피는 디저트와 함께 드라이브 겸 방문하기 좋은 카페입니다. 나주 송월점과 마찬가지로 하라커피만의 테이블이 마련되어 있어 편안하게 즐길 수 있습니다.,아늑한; 편안한,드라이브; 디저트; 휴식,,연인; 친구·지인; 혼자,디저트; 음료,,,정보 없음
나주,요거트퍼플 남평점,전남 나주시 남평읍 강변2길 22,126.852344868312,35.0412737588295,http://place.map.kakao.com/927646103,"이 카페는 디저트가 맛있다는 평가가 많으며, 특히 요거트 아이스크림과 특별한 메뉴들이 인기입니다. 다양한 에이드, 주스, 스무디, 프라페 등의 음료 메뉴도 갖추고 있습니다.",디저트 맛집; 특별한 메뉴,간식; 디저트; 카페 투어,달달한; 상큼한,가족; 연인; 친구·지인,스무디; 에이드; 요거트; 주스; 티; 프라페,블루베리요거트드링; 애플청포도타르트; 요거트 아이스크림; 크림모카빵,아메리카노; 콜드브루; 크림모카,정보 없음
나주,송복희라이스케익&카페,전남 나주시 나주로 53,126.715789449858,35.0237459720418,http://place.map.kakao.com/1930114666,,,,,,,,,
나주,유요거트 나주혁신점,전남 나주시 그린로 337,126.794128232742,35.0164885077779,http://place.map.kakao.com/1116274130,,,,,,,,,
나주,요거트퍼플 나주혁신도시점,전남 나주시 우정로 56,126.786296512272,35.0236544492014,http://place.map.kakao.com/1382604845,"나주혁신도시에 위치한 여러 카페들은 건강한 음료와 디저트를 다양하게 제공하며, 깔끔하고 따뜻한 분위기를 자랑합니다. 특히 크로플, 케이크, 스무디 등 여러 메뉴가 인기 있으며, 일부 카페는 애견 동반이나 가족 모임 장소로도 적합합니다.",감성적인; 깔끔한; 따뜻한; 모던한; 편안한,가족 모임; 데이트; 디저트; 친구·지인; 카페 투어,건강한; 고소한; 달달한; 신선한; 진한,가족; 반려동물 동반; 어린이 동반; 연인; 친구·지인,샌드위치; 스무디; 에이드; 커피; 케이크; 티,바나나푸딩; 케이크; 쿠키; 크로플,라떼; 아메리카노; 콜드브루,갓길 주차 가능; 정보 없음; 주차 가능
나주,오아르케이크,광주 광산구 평동로1100번길 71,126.78485594902466,35.13212543764233,http://place.map.kakao.com/1282755698,"나주 지역의 다양한 디저트 카페들은 맛있는 케이크와 롤케이크 등 풍성한 디저트 메뉴를 제공하며, 일부 카페는 넓은 공간과 편안한 분위기를 자랑한다. 또한, 주차 시설이 잘 갖춰져 있어 방문이 편리하며, 커피 맛 또한 훌륭하다는 평을 받고 있다.",넓은; 모던한; 아늑한; 예쁜; 이국적인; 편안한,가족 나들이; 데이트; 디저트; 수다; 카페 투어,고소한; 달달한; 담백한; 신선한; 진한,가족; 어린이 동반; 연인; 친구·지인; 혼자,롤케이크; 마카롱; 빵; 샌드위치; 케이크; 쿠키,과일 케이크; 롤케이크; 버터바; 생크림 케이크,라떼; 시그니처 커피; 아메리카노,주차 가능; 주차 넓음; 주차 협소
나주,샤빙,광주 광산구 송도로 119,126.789752396147,35.1271350765862,http://place.map.kakao.com/1804946420,,,,,,,,,
나주,광카롱,광주 광산구 광산로 11-1,126.79332045072633,35.137915190317905,http://place.map.kakao.com/61680413,,,,,,,,,
나주,갱소년,광주 광산구 송정로8번길 7-4,126.79210690857957,35.13660343704841,http://place.map.kakao.com/1520049872,"갱소년 카페는 녹차 티라미수, 수박 셔벗, 앙버터 모나카, 구슬 양갱 등 다양한 디저트를 판매하며, 11시 30분부터 15시까지 카페 메뉴 주문이 가능합니다. 1시간 단위 예약제로 운영됩니다.",예약제,디저트; 카페 투어,달달한,연인; 친구·지인,모나카; 셔벗; 양갱; 티라미수,구슬 양갱; 앙버터 모나카,,정보 없음
나주,케이크위크,광주 광산구 상무대로 157,126.78893798087013,35.134072345276245,http://place.map.kakao.com/2038826963,"다양한 종류의 케이크와 디저트를 맛볼 수 있는 나주 디저트 카페들이 있습니다. 특히 생크림 케이크, 과일 케이크, 롤케이크 등이 인기 메뉴이며, 일부 카페는 넓은 주차 공간을 제공하여 방문이 편리합니다.",감성적인; 넓은; 편안한,데이트; 디저트; 선물; 카페 투어; 케이크,꾸덕한; 달달한; 부드러운; 신선한,가족; 어린이 동반; 연인; 친구·지인,롤케이크; 마카롱; 샌드위치; 에그타르트; 케이크; 휘낭시에,과일케이크; 롤케이크; 생크림케이크,라떼; 아메리카노,정보 없음; 주차 가능; 주차 넓음
나주,설빙 광주호남대점,광주 광산구 어등대로 418,126.76920469073899,35.148756481410594,http://place.map.kakao.com/26644287,"다양한 빙수와 디저트를 즐길 수 있는 카페로, 여름철 시원한 메뉴를 찾는 사람들에게 인기가 많습니다. 특히 망고, 메론 등 과일을 활용한 빙수와 인절미 메뉴가 눈에 띕니다. 친구, 연인과 함께 방문하기 좋으며, 혼자 방문하여 여유를 즐기기에도 적합합니다.",시원한; 여름; 여유; 추억,간식; 디저트; 빙수; 연인; 친구,달달한; 시원한; 신선한,연인; 친구·지인; 혼자,디저트; 빙수; 인절미,망고빙수; 메론빙수; 인절미빙수; 인절미토스트,,정보 없음
나주,시간의정원,전남 함평군 학교면 학교화산길 19,126.535058041434,35.0500498049337,http://place.map.kakao.com/1493294199,,,,,,,,,
나주,메가샵크로플 광주송정역점,광주 광산구 송정로 5,126.792190370953,35.1374391418861,http://place.map.kakao.com/1738324098,"다양한 디저트 메뉴와 함께 커피, 음료를 즐길 수 있는 카페들이 소개됩니다. 특히 크로플, 마들렌, 케이크 등 달콤한 디저트와 함께 여유로운 시간을 보내기 좋으며, 일부 카페는 야간 운영이나 독특한 인테리어를 자랑합니다.",감성적인; 모던한; 빈티지한; 조용한; 편안한,데이트; 디저트; 수다; 카페 투어; 휴식,달달한; 신선한; 진한,가족; 연인; 친구·지인; 혼자,라떼; 마카롱; 스콘; 아메리카노; 케이크; 크로플,마들렌; 쑥스초코파이; 크로플,라떼; 아메리카노,정보 없음
나주,송정리,광주 광산구 용보로 45,126.80282531737248,35.13552439306866,http://place.map.kakao.com/703570111,"나주에 위치한 이 대형 카페는 광주 근교에서 접근성이 좋으며, 보기에도 좋고 맛있는 음료와 디저트를 제공합니다. 아름다운 풍경과 함께 편안하게 즐길 수 있으며, 주차 공간도 마련되어 있습니다.",대형; 아름다운; 풍경 좋은,가족; 디저트; 카페 투어,맛있는; 비주얼 좋은,가족; 연인; 친구·지인,디저트; 음료; 크레이프,크레이프,,주차장 있음
나주,설렌,광주 광산구 선운로2번길 63-3,126.77610225706292,35.14624742006881,http://place.map.kakao.com/221969088,"과천의 디저트 맛집으로, 다양한 디저트와 음료를 즐길 수 있습니다. 평일 카페 데이트나 모임 장소로 추천할 만한 곳입니다.",감성적인; 예쁜,데이트; 디저트; 모임; 카페 투어,달달한,연인; 친구·지인,디저트; 커피; 케이크,디저트; 케이크,커피,정보 없음
나주,39-17마중 카페,전남 나주시 향교길 42-16,126.71052617658,35.0334990314456,http://place.map.kakao.com/74579715,"나주 39-17마중 카페는 1939년에 지어진 고택과 2017년에 개장한 복합문화공간으로, 나주 특산물인 배를 활용한 독특한 음료와 디저트를 맛볼 수 있는 곳입니다. 아름다운 정원과 함께 다양한 체험 프로그램도 제공하며, 한옥 숙박도 가능합니다.",감성적인; 고풍스러운; 문화공간; 정원; 한옥,나들이; 디저트; 체험; 카페 투어; 휴식,달달한; 달콤한; 신선한; 진한,가족; 연인; 친구·지인; 혼자,배 음료; 양갱; 차; 커피; 케이크; 쿠키,나주배 디저트; 나주배 양갱,아메리카노,정보 없음
나주,플로우디저트,전남 나주시 호수로 70,126.790150271624,35.0133521066779,http://place.map.kakao.com/978512263,"나주 플로우 디저트는 떡케이크와 쌀 디저트를 전문으로 하며, 건강하고 좋은 재료로 만든 메뉴가 특징입니다. 아메리카노는 꼬숩고 맛있다는 평이 있으며, 쑥절미떡케이크와 구움찰떡이 추천 메뉴입니다. 100% 예약제로 운영됩니다.",갬성적인; 건강한; 예쁜,디저트; 선물; 카페 투어,꼬숩고; 달달한; 쫀득함,가족; 친구·지인,구움찰떡; 떡케이크; 스콘; 아메리카노; 젤리; 휘낭시에,구움찰떡; 쑥절미떡케이크,아메리카노,정보 없음
나주,해이나주,전남 나주시 금성관길 44-1,126.71558876100981,35.03486667023294,http://place.map.kakao.com/1460966593,"해이나주는 한옥의 정취를 느낄 수 있는 나주의 감성적인 카페입니다. 통유리창을 통해 보이는 풍경과 함께 다양한 디저트와 음료를 즐길 수 있으며, 편안한 분위기 속에서 잠시 해이해지며 쉬어가기 좋은 공간입니다.",감성적; 조용한; 통유리; 편안한; 한옥,데이트; 디저트; 수다; 카페 투어; 휴식,고소한; 달달한; 담백한; 진한,가족; 연인; 친구·지인; 혼자,소금빵; 스무디; 아메리카노; 에이드; 치즈케이크; 쿠키,르뱅쿠키; 바스크 치즈케이크; 소금빵,아메리카노; 아인슈페너,가게 앞 2~3대; 갓길 주차 가능
나주,컴포즈커피 나주곰탕거리점,전남 나주시 나주로 144,126.71707840016612,35.031593655411285,http://place.map.kakao.com/450326214,"나주 곰탕거리 인근에 위치한 카페들은 곰탕 식사 후 커피와 디저트를 즐기기 좋은 장소입니다. 특히 나주 특산물인 배를 활용한 디저트와 음료, 절굿대떡 등 다양한 메뉴를 판매하며, 합리적인 가격과 편안한 분위기를 제공합니다. 곰탕거리 방문 시 함께 들러 여유로운 시간을 보내기 좋습니다.",감성적인; 분위기 좋은; 아늑한; 편안한,디저트; 모임; 카페 투어; 커피; 휴식,고소한; 달달한; 신선한,가족; 연인; 친구·지인,떡; 에이드; 주스; 차; 커피; 케이크,나주배 디저트; 절굿대떡,라떼; 아메리카노,주차 가능
나주,카페림,전남 나주시 다도면 세남로 1304,126.819715259659,35.0073576688169,http://place.map.kakao.com/193085865,"시외 카페 치고는 가격이 저렴한 편이며, 내부와 외부 공간이 잘 꾸며져 있고 디저트도 예쁘게 나온다. 특히 레드벨벳 머핀과 소금빵이 맛있고, 시그니처 메뉴인 팬케이크는 퐁신하고 부드러운 식감이 특징이다.",감성적인; 고즈넉한; 내추럴한,데이트; 디저트; 커피; 휴식,고소한; 달달한; 부드러운; 퐁신한,연인; 친구·지인,딸기음료; 머핀; 소금빵; 팬케이크,레드벨벳 머핀; 소금빵; 팬케이크,,정보 없음
나주,할리스 나주빛가람혁신도시점,전남 나주시 배멧3길 5-4,126.78579651602801,35.01874195820527,http://place.map.kakao.com/1783228474,"나주 혁신도시에 위치한 카페들은 다양한 디저트와 음료를 판매하며, 깔끔하고 따뜻한 분위기 속에서 여유로운 시간을 보내기 좋습니다. 일부 카페는 뷰가 좋거나 애견 동반이 가능하며, 가족 모임이나 단체 모임에도 적합한 공간을 제공합니다.",감성적인; 깔끔한; 넓은; 따뜻한; 여유로운; 조용한,데이트; 디저트; 모임; 수다; 카페 투어,건강한; 달달한; 맛있는; 신선한,가족; 반려동물 동반; 어린이 동반; 연인; 친구·지인,디저트; 스무디; 음료; 커피; 케이크; 크로플,디저트; 케이크; 크로플,아메리카노; 커피,갓길 주차 가능; 정보 없음; 주차 가능
나주,컴포즈커피 나주대호일등점,전남 나주시 대호길 92,126.71628763998005,35.043197000791416,http://place.map.kakao.com/1387941016,"나주 지역의 다양한 카페들은 깔끔한 공간과 합리적인 가격대의 음료를 제공하며, 테이크아웃 전문점부터 통창으로 풍경을 즐길 수 있는 곳까지 선택의 폭이 넓습니다. 디저트 메뉴도 다양하게 준비되어 있어 취향에 맞게 즐기기 좋습니다.",감성적인; 깔끔한; 조용한; 편안한,간단한 음료; 디저트; 카페 투어; 피크닉 테이크아웃,달달한; 산미 있는; 신선한,아이 동반; 연인; 친구·지인; 혼자,디저트; 라떼; 스무디; 아메리카노; 커피; 케이크,딸기생크림케익; 티그레; 황치즈버터바,시그니처 라떼; 아이스 아메리카노,갓길 주차 가능; 정보 없음; 주차 가능; 주차 넓음
나주,컴포즈커피 나주혁신스퀘어가든점,전남 나주시 상야4길 22,126.79118972746183,35.02251190731737,http://place.map.kakao.com/1694816728,"나주혁신도시에 위치한 다양한 카페들은 맛있는 커피와 디저트를 제공하며, 감성적인 인테리어와 편안한 분위기를 자랑합니다. 일부 카페는 가성비가 좋고, 베이커리, 샌드위치 등 다양한 메뉴를 갖추고 있어 방문객들의 만족도를 높입니다.",감성적인; 깔끔한; 편안한; 힙한,데이트; 디저트; 수다; 업무; 커피,고소한; 달달한; 상큼한; 신선한,가족; 연인; 친구·지인; 혼자,라떼; 샌드위치; 아메리카노; 케이크; 쿠키; 크루아상,까눌레; 치즈케이크; 크림도넛,라떼; 아메리카노; 아인슈페너; 콜드브루,주차 가능
나주,컴포즈커피 나주일등점,전남 나주시 영산포로 139,126.70686663151473,34.99462105372132,http://place.map.kakao.com/1622257140,"나주 혁신도시의 여러 카페들은 저렴한 가격에 다양한 음료와 디저트를 제공하며, 친구, 연인과 함께 방문하기 좋은 공간입니다. 일부 카페는 넓은 주차 공간을 갖추고 있으며, 조용하고 감성적인 분위기에서 여유를 즐기기에도 좋습니다.",감성적인; 깔끔한; 분위기 좋은; 조용한; 차분한; 한산한,간단한; 데이트; 디저트; 여유; 카페 투어; 커피,깔끔 담백한; 달달한; 산미 있는; 신선한; 우유맛,연인; 친구·지인; 혼자,딸기연유라떼; 아이스 아메리카노; 자두스무디; 케이크; 티그레; 황치즈버터바,딸기생크림케익; 티그레; 황치즈버터바,GT 시크니처 라떼; 아이스 아메리카노,갓길 주차 가능; 공용 주차장; 주차 가능; 주차 협소
나주,컴포즈커피 나주마한농협양산점,전남 나주시 왕곡면 장산양산길 37,126.70553384688095,34.97344076590491,http://place.map.kakao.com/1569358399,"다양한 나주 지역 카페들은 커피와 디저트 메뉴가 맛있고, 특히 컴포즈커피와 블레스롤 등은 접근성이 좋으며 저렴한 가격으로 인기가 많습니다. 일부 카페는 독특한 분위기나 역사 관련 북카페 등 특별한 경험을 제공하기도 합니다.",감성적인; 넓은; 이쁜; 조용한; 편안한,간식; 데이트; 디저트; 커피; 휴식,고소한; 달달한; 맛있는; 부드러운; 산미 있는,연인; 친구·지인; 혼자,디저트; 라떼; 아메리카노; 아이스크림; 커피; 케이크,아이스초코케익; 크로플; 황치즈버터바,라떼; 아메리카노,정보 없음; 주차 가능; 주차 넓음; 주차 협소
나주,다올,전남 나주시 금남길 55-1,126.714238798491,35.0335565055282,http://place.map.kakao.com/921960823,"나주 한옥 카페 다올은 고즈넉한 분위기에서 다양한 디저트와 음료를 즐길 수 있는 곳입니다. 특히 말렌카 꿀 케이크와 크로플이 인기 있으며, 부모님과 함께 방문하기에도 좋습니다.",감성적인; 고즈넉한; 운치있는; 정원이 예쁜; 편안한; 한옥,가족; 데이트; 디저트; 수다; 카페 투어; 휴식,고소한; 달달한; 맛있는; 신선한; 진한,가족; 부모님; 연인; 친구·지인,디저트; 빙수; 차; 커피; 케이크; 크로플,말렌카 꿀케이크; 크로플; 크룽지,아메리카노; 카페라떼,주차 불가
나주,컴포즈커피 나주남평점,전남 나주시 남평읍 강변2길 5-9,126.85042518250226,35.04041239590636,http://place.map.kakao.com/537357439,"나주 지역의 카페들은 다양한 디저트 메뉴와 1리터 사이즈의 커피를 제공하며, 개인 카페 기준 합리적인 가격대를 형성하고 있습니다. 조용하고 감성적인 분위기에서 커피 한잔을 즐기거나, 간편하게 디저트를 맛보기에 좋습니다. 일부 카페는 주차 정보를 제공합니다.",감성적인; 분위기 좋은; 조용한; 차분한,데이트; 디저트; 이야기; 커피; 휴식,깔끔한; 달달한; 담백한; 산미 있는,연인; 친구·지인; 혼자,디저트; 스무디; 음료; 커피; 케이크; 쿠키,케이크; 티그레; 황치즈버터바,라떼; 아메리카노,주차 가능
나주,컴포즈커피 나주혁신문화로점,전남 나주시 문화로 226,126.785216371604,35.0189446444508,http://place.map.kakao.com/2033228998,"나주 혁신도시에 다양한 디저트와 음료를 즐길 수 있는 카페들이 많습니다. 가격대는 개인 카페 기준 착한편이며, 깔끔한 인테리어와 편안한 공간에서 여유로운 시간을 보내기 좋습니다. 일부 카페는 애견 동반이 가능하며, 방문 목적에 따라 가볍게 커피 한 잔을 즐기거나 브런치를 즐기기에도 적합합니다.",감성적인; 깔끔한; 편안한; 힙한,데이트; 디저트; 브런치; 수다; 커피; 휴식,고소한; 달달한; 맛있는; 부드러운; 상큼한,가족; 반려동물 동반; 연인; 친구·지인; 혼자,러스크; 샌드위치; 커피; 케이크; 쿠키; 크루아상,까눌레; 케이크; 쿠키,라떼; 스무디; 아메리카노; 에이드,주차 가능; 주차 협소
나주,컴포즈커피 나주동강농협주유소점,전남 나주시 동강면 남악동강로 1432,126.567033642819,34.9299317796852,http://place.map.kakao.com/677600428,"넓은 주차장을 갖춘 대형 카페로, 다양한 커피와 함께 풍성한 디저트를 즐길 수 있습니다. 가격대는 합리적이며, 개인 카페 기준으로는 부담 없는 편입니다. 커피 외에도 다양한 음료와 디저트 메뉴가 준비되어 있어 선택의 폭이 넓습니다.",넓은; 모던한; 조용한; 편안한,간단한 식사; 데이트; 디저트; 카페 투어; 커피,달달한; 부드러운; 산미 있는; 신선한,가족; 연인; 친구·지인; 혼자,라떼; 샌드위치; 스콘; 아메리카노; 케이크; 크로플,롤케이크; 에그타르트; 티그레; 황치즈버터바,라떼; 아메리카노,주차 가능; 주차 넓음
나주,컴포즈커피 나주송월부영점,전남 나주시 나주로 41-17,126.714979492715,35.0241199463304,http://place.map.kakao.com/889075570,"나주 지역의 다양한 카페들은 개인 카페임에도 합리적인 가격대의 음료와 디저트를 제공합니다. 조용하고 감성적인 분위기에서 여유로운 시간을 보내거나, 산미있는 커피와 달콤한 디저트를 즐길 수 있는 곳들이 많습니다.",감성적인; 분위기 좋은; 조용한; 차분한; 편안한,데이트; 디저트; 수다; 카페 투어; 커피 한잔,깔끔한; 달콤한; 담백한; 산미 있는; 진한,연인; 친구·지인; 혼자,디저트; 아메리카노; 음료; 커피; 케이크,말렌카; 와플; 쿠키; 티그레; 황치즈버터바,시그니처 라떼; 아메리카노,갓길 주차 가능; 공용 주차장
나주,컴포즈커피 나주혁신한빛로점,전남 나주시 한빛로 41,126.779763811906,35.0252400109215,http://place.map.kakao.com/337851724,"나주 혁신도시에 위치한 여러 카페들은 깔끔한 인테리어와 다양한 디저트 및 음료 메뉴를 제공하며, 가성비 좋은 곳부터 특별한 시그니처 메뉴를 갖춘 곳까지 선택의 폭이 넓습니다. 일부 카페는 넓은 공간과 편안한 분위기를 자랑하며, 직장인 점심 후 커피 한 잔이나 여유로운 시간을 보내기에도 좋습니다.",감성적인; 깔끔한; 모던한; 여유로운; 편안한; 힙한,가벼운 점심; 데이트; 디저트; 업무; 카페 투어; 커피,고소한; 달달한; 부드러운; 상큼한; 신선한; 진한,가족; 어린이 동반; 연인; 친구·지인; 혼자,라떼; 샌드위치; 아메리카노; 에이드; 케이크; 쿠키,까눌레; 치즈케잌; 크루아상,드립커피; 시그니처 라떼; 아인슈페너; 크림라떼,정보 없음
나주,컴포즈커피 나주금천농협빛가람점,전남 나주시 중야2길 24,126.7849883884341,35.016882787829395,http://place.map.kakao.com/1393613096,"나주 지역의 다양한 카페들은 넓은 주차장과 함께 맛있는 커피와 다채로운 디저트를 제공합니다. 특히 디저트39의 도쿄롤, 블레스롤의 아이스 초코 케익 등 시그니처 메뉴들이 인기가 많으며, 개인 카페들도 착한 가격과 독창적인 메뉴로 방문객을 맞이합니다.",감성적인; 넓은; 모던한; 북적이는; 조용한; 편안한,가족 외식; 데이트; 디저트; 수다; 업무; 카페 투어,고소한; 달달한; 부드러운; 산미 있는; 신선한; 진한,가족; 어린이 동반; 연인; 친구·지인; 혼자,라떼; 롤; 샌드위치; 아메리카노; 케이크; 크로플,도쿄롤; 아이스초코케익; 황치즈버터바,라떼; 아메리카노; 콜드브루,가게 앞 주차; 골목 주차; 정보 없음; 주차 가능; 주차 넓음; 주차 협소
나주,카페플라워92,전남 나주시 쌍산3길 5-6,126.79471632301,35.027995596245,http://place.map.kakao.com/1927598650,"나주에 위치한 카페 플라워 92는 꽃과 식물로 가득한 힐링 공간입니다. 커피 주문 시 미니 꽃을 증정하며, 깨끗한 화장실과 테라스 공간도 갖추고 있습니다. 다양한 음료와 디저트 메뉴를 즐길 수 있습니다.",꽃; 식물; 힐링,디저트; 카페 투어; 휴식,달달한; 커피,연인; 친구·지인,간식; 디저트; 음료; 커피,,커피,정보 없음
나주,1913카페정감,전남 나주시 영산포로 263-5,126.70729789644896,35.004858159244556,http://place.map.kakao.com/1401386657,"나주 지역 카페들은 정감 있고 따뜻한 분위기를 자랑하며, 다양한 음료와 맛있는 디저트를 제공합니다. 넓은 공간과 아늑한 인테리어는 편안한 휴식을 선사하며, 사진 찍기 좋은 공간도 마련되어 있습니다.",감성적인; 따뜻한; 아늑한; 정감있는; 편안한,디저트; 수다; 카페 투어; 휴식,달달한; 맛있는,연인; 친구·지인,디저트; 음료; 커피; 케이크,꿀케이크; 스콘,커피,갓길주차; 주차 가능
나주,더리터 나주혁신점,전남 나주시 배멧3길 19-3,126.78636400120085,35.01919274630777,http://place.map.kakao.com/976894031,"나주혁신점 카페들은 통유리로 탁 트인 전망을 자랑하며, 편안한 분위기 속에서 맛있는 디저트와 커피를 즐길 수 있습니다. 다양한 디저트 라인업과 친절한 서비스로 방문객들의 만족도를 높이고 있으며, 특히 늦은 시간까지 영업하는 곳들도 있어 편리하게 이용 가능합니다.",감성적인; 고급스러운; 빈티지스러운; 웅장한; 차분한; 편안한,데이트; 디저트; 수다; 업무; 카페 투어,고소한; 달달한; 진한; 촉촉한; 크리미한,가족; 어린이 동반; 연인; 친구·지인; 혼자,디저트; 스무디; 커피; 케이크; 크루아상,누네띠네 크루아상; 롤케이크; 버터바; 소금빵; 크로플,디카페인; 아메리카노; 크림라떼,건물 주차장; 주차 가능
나주,컴포즈커피 나주빛가람그린로점,전남 나주시 그린로 195,126.78780643845735,35.00966138905947,http://place.map.kakao.com/1133676125,"나주 혁신도시의 여러 카페들은 맛있는 디저트와 커피, 넓고 쾌적한 공간, 그리고 아름다운 뷰를 자랑합니다. 다양한 메뉴와 친절한 서비스, 편리한 주차 공간까지 갖춘 곳들이 많아 방문객들의 만족도가 높습니다. 특히 디저트 종류가 다양하고 커피 맛도 훌륭하여 디저트와 커피를 즐기기 좋은 곳들입니다.",깔끔한; 넓은; 따뜻한; 모던한; 아늑한; 조용한,데이트; 디저트; 산책; 카페 투어; 커피; 힐링,고소한; 꾸덕한; 달달한; 담백한; 신선한; 진한,가족; 반려동물 동반; 어린이 동반; 연인; 친구·지인; 혼자,라떼; 마카롱; 샌드위치; 커피; 케이크; 크로플,딸기티라미수; 말렌카; 버터바,드립커피; 아메리카노; 카페라떼,전용주차장; 주차 가능; 주차 넓음
나주,컴포즈커피 나주빛가람황동점,전남 나주시 황동3길 83,126.77623912996546,35.01423494686741,http://place.map.kakao.com/327588073,"나주 빛가람동 지역의 다양한 카페들은 맛있는 디저트와 음료를 제공하며, 넓은 공간과 감성적인 인테리어가 특징입니다. 일부 카페는 호수 전망을 갖추고 있어 특별한 경험을 선사하며, 주차 정보와 사진 촬영 팁도 제공되어 방문객의 만족도를 높입니다.",감성적인; 깔끔한; 넓은 공간; 아늑한; 조용한; 편안한,데이트; 디저트; 수다; 카페 투어; 휴식,고소한; 달달한; 담백한; 맛있는; 신선한,가족; 어린이 동반; 연인; 친구·지인; 혼자,디저트; 마카롱; 샌드위치; 커피; 케이크; 크로플,말렌카; 버터바; 케이크,라떼; 아메리카노; 핸드드립,정보 없음; 주차 가능
나주,커피예가,전남 나주시 내동길 14,126.712571594635,35.0136276501879,http://place.map.kakao.com/1722424068,,,,,,,,,
나주,포레스트,전남 나주시 한빛로 262,126.79384812810666,35.022011680373375,http://place.map.kakao.com/1298205753,"나주 빛가람동에 위치한 이 카페는 감성적인 인테리어와 함께 다양한 디저트와 음료를 제공합니다. 특히 '리틀 포레스트'라는 시그니처 메뉴와 까눌레가 인기가 많으며, 넓은 주차 공간을 갖추고 있어 방문이 편리합니다. 친구, 연인과 함께 방문하여 여유로운 시간을 보내기 좋습니다.",감성적인; 넓은; 이색적인; 편안한,데이트; 디저트; 수다; 카페 투어; 휴식,고소한; 달달한; 진한; 향긋한,가족; 어린이 동반; 연인; 친구·지인,까눌레; 라떼; 에이드; 커피; 케이크,까눌레; 리틀 포레스트,아몬드 크림라떼,주차 넓음
나주,컴포즈커피 나주혁신점,전남 나주시 상야1길 21,126.78732949565112,35.022502500080115,http://place.map.kakao.com/1800019537,"GT커피 나주혁신점은 다양한 종류의 디저트와 맛있는 커피를 합리적인 가격으로 즐길 수 있는 곳입니다. 디카페인 변경이 가능하며, 저녁 12시까지 영업하여 방문하기 좋습니다.",감성적인; 깔끔한; 모던한; 산업적인,데이트; 디저트; 수다; 카페 투어,꾸덕한; 달달한; 맛있는; 진한,가족; 연인; 친구·지인,라떼; 버터바; 스무디; 에이드; 케이크; 크루아상,버터바; 케이크; 크루아상,라떼; 시그니처 라떼; 아메리카노,건물 주차장 2시간 무료
나주,풀꽃향기,전남 나주시 금천면 원곡길 77-9,126.747130992247,35.0426162137703,http://place.map.kakao.com/533850740,,,,,,,,,
나주,나주커피,전남 나주시 그린로 357,126.79375286920359,35.01849343845325,http://place.map.kakao.com/475815843,"나주 지역의 여러 카페들은 맛있는 디저트와 커피를 제공하며, 방문객들에게 좋은 경험을 선사합니다. 일부 카페는 독특한 시그니처 메뉴와 함께 편안하거나 감성적인 분위기를 자랑하며, 주차 편의성이나 특별한 뷰를 제공하기도 합니다.",감성적인; 넓은; 모던한; 아늑한; 편안한,데이트; 디저트; 수다; 카페 투어; 커피; 힐링,고소한; 달달한; 신선한; 진한,가족; 연인; 친구·지인; 혼자,라떼; 샌드위치; 아메리카노; 케이크; 크로플; 티,롤케이크; 소금빵; 크로플; 티그레,아메리카노; 아인슈페너; 콜드브루,정보 없음; 주차 가능
나주,컴포즈커피 나주남평로중앙점,전남 나주시 남평읍 남평2로 54-1,126.84201402261,35.0470313544286,http://place.map.kakao.com/724946131,"컴포즈커피는 다양한 음료와 디저트 메뉴를 가성비 좋은 가격에 즐길 수 있는 프랜차이즈 카페입니다. 특히 마카롱, 케이크, 쿠키, 크로플 등 여러 디저트가 준비되어 있으며, 일부 매장은 쾌적하고 조용한 분위기에서 커피를 즐기기 좋습니다.",가성비 좋은; 깔끔한; 조용한; 쾌적한,가벼운 휴식; 디저트; 커피,달달한; 신선한,가족; 연인; 친구·지인; 혼자,디저트; 마카롱; 커피; 케이크; 쿠키; 크로플,마카롱; 와플; 크룽지,아메리카노; 카페라떼,정보 없음
나주,리시안셔스,전남 나주시 노안면 금안2길 144-5,126.691773777719,35.0693319339597,http://place.map.kakao.com/793809786,,,,,,,,,
나주,5블럭,전남 나주시 배멧3길 19-3,126.78631227675477,35.01928008895837,http://place.map.kakao.com/225363901,"나주 빛가람호수공원 근처에 위치한 5블럭은 이른 아침부터 영업하며 커피 맛이 좋고, 베이커리 메뉴도 다양하게 갖춘 카페입니다. 넓은 공간 구성과 공원 뷰를 즐기며 여유로운 시간을 보내기 좋습니다.",공원뷰; 넓은; 모던한; 편안한,가벼운 점심; 디저트; 수다; 업무; 카페 투어,달달한; 맛있는 커피,가족; 어린이 동반; 연인; 친구·지인; 혼자,라떼; 베이커리; 스콘; 커피; 케이크,베이커리; 스콘,카페라떼; 커피,주차 가능
나주,프랭크커핀바 나주혁신점,전남 나주시 상야1길 21,126.787928917031,35.0229046622005,http://place.map.kakao.com/390898868,"프랭크커핀바 나주혁신점은 유럽풍의 세련된 외관과 내부 인테리어가 돋보이는 카페로, 다양한 종류의 커피와 함께 크로플, 휘낭시에 등 디저트 메뉴를 즐길 수 있습니다. 특히 바 좌석은 독특한 분위기를 선사하며, 음료와 디저트 모두 만족스러운 맛을 제공합니다.",분위기 좋은; 세련된; 앤틱한; 유럽풍; 이국적인; 편안한,데이트; 디저트; 수다; 카페 투어; 커피,달콤한; 맛있는; 부드러운; 진한,가족; 연인; 친구·지인,맥주; 커피; 케이크; 콜드브루; 크로플; 휘낭시에,크로플,에스프레소; 콜드브루; 크림라떼,정보 없음
나주,스타벅스 나주혁신DT점,전남 나주시 빛가람로 838,126.803056267739,35.0212310552948,http://place.map.kakao.com/420662298,"스타벅스 나주혁신DT점은 넓은 공간과 편안한 주차 공간을 갖춘 대형 카페로, 가족 및 아이들과 함께 방문하기 좋습니다. 2층에는 신발을 벗고 올라가는 넓은 공간이 마련되어 있습니다.",넓은; 대형; 모던한; 조용한; 편안한,가족; 디저트; 수다; 카페 투어; 휴식,달달한; 신선한,가족; 어린이 동반; 연인; 친구·지인; 혼자,디저트; 마카롱; 음료; 커피; 케이크,디저트,아이스 블랙 글레이즈드 라떼,무료 주차; 주차 가능; 주차 넓음
나주,카페파밀리에,전남 나주시 영산포로 121,126.706124187132,34.9933374960505,http://place.map.kakao.com/27551740,"나주 카페 파밀리에는 영산포 벚꽃 명소로, 카페 안에서 아름다운 벚꽃을 감상하며 음료와 디저트를 즐길 수 있습니다. 특히 벚꽃 시즌에 인기가 많으며, 다양한 베이커리와 케이크, 마카롱 등 디저트 메뉴도 준비되어 있습니다. 카페 주변 골목 주차가 가능합니다.",감성적인; 벚꽃뷰; 북적이는; 편안한,데이트; 디저트; 벚꽃 구경; 봄 나들이; 카페 투어,달달한; 맛있는,가족; 연인; 친구·지인; 혼자,디저트; 마카롱; 베이커리; 와플; 커피; 케이크,땅콩빵; 마카롱; 소보루 베이글; 치즈 베이글; 케이크,아메리카노; 파밀커피,골목 주차
나주,윤뜰,전남 나주시 재신길 24,126.7137943659523,35.02272633388876,http://place.map.kakao.com/1069219203,"나주역 근처에 위치한 카페 윤뜰은 다양한 브런치 메뉴와 디저트, 음료를 제공합니다. 친절한 직원과 아늑한 공간에서 맛있는 커피와 함께 즐거운 시간을 보낼 수 있으며, 브런치 메뉴 외에도 케이크, 쿠키 등 다양한 디저트를 맛볼 수 있습니다.",감성적인; 고즈넉한; 아늑한; 조용한,가벼운 식사; 데이트; 디저트; 브런치; 카페 투어,고소한; 달달한; 진한,가족; 연인; 친구·지인; 혼자,브런치; 샌드위치; 샐러드; 에이드; 커피; 케이크,당근 케이크; 바스크 치즈 케이크; 호두 파이,라떼; 아메리카노; 아인슈페너; 콜드브루,정보 없음
나주,한켠에,전남 나주시 빛가람로 685,126.78666360891232,35.02153685687061,http://place.map.kakao.com/1160784173,"나주 혁신도시에 위치한 디저트 카페 '한켠에'는 맛있는 쿠키와 다양한 종류의 생과일 케이크로 유명합니다. 특히 딸기 케이크와 망고 케이크가 인기 있으며, 매장은 모던한 인테리어에 아기자기한 분위기를 느낄 수 있습니다. 지하 주차장을 이용할 수 있습니다.",감성적인; 모던한; 아기자기한; 편안한,데이트; 디저트; 모임; 수다; 카페 투어,고소한; 달달한; 신선한,가족; 연인; 친구·지인; 혼자,밀크티; 바; 아메리카노; 케이크; 쿠키; 휘낭시에,딸기케이크; 망고케이크; 쿠키,밀크티; 아메리카노,건물 지하 주차장
나주,스타벅스 전남나주점,전남 나주시 상야1길 21,126.787988973006,35.0225613421259,http://place.map.kakao.com/2033587243,"나주혁신도시에 위치한 스타벅스 전남나주점은 깔끔한 매장과 친절한 직원 응대가 돋보입니다. 다양한 음료와 디저트, MD 상품이 준비되어 있으며, 넓은 공간과 편리한 주차 시설을 갖추고 있어 여유로운 시간을 보내기 좋습니다.",깔끔한; 넓은; 편안한,이야기; 친구·지인; 카페 투어,달달한,연인; 친구·지인,디저트; 스콘; 음료; 커피; 케이크,스콘; 케이크,아메리카노; 커피,넓은; 주차 가능
나주,빽다방 나주듀플렉스호텔점,전남 나주시 배멧2길 13,126.793359795618,35.0188199703505,http://place.map.kakao.com/1969928911,나주 빽다방에서는 아이스 아메리카노와 크림빵 등 다양한 메뉴를 테이크아웃하여 집에서 맛있게 즐길 수 있습니다.,편안한,디저트; 커피; 테이크아웃,달달한,가족; 친구·지인; 혼자,디저트; 빵; 커피,크림빵,아이스 아메리카노,정보 없음
나주,카페염원,전남 나주시 문화로 234,126.78529889390106,35.01965056976439,http://place.map.kakao.com/4939451,"카페염원은 나주혁신도시에 위치한 감성적인 디저트 맛집으로, 매일 직접 만드는 신선한 케이크와 다양한 디저트 메뉴를 맛볼 수 있습니다. 메론 생크림 케이크가 시그니처 메뉴이며, 비 오는 날 창밖 풍경과 어우러지는 인테리어가 인상적입니다.",감성적인; 깔끔한; 아늑한; 조용한,데이트; 디저트; 수다; 카페 투어,달달한; 신선한; 진한; 푹신한,가족; 연인; 친구·지인; 혼자,디저트; 롤케이크; 음료; 커피; 케이크; 쿠키,망고 바스케 치즈케익; 메론 생크림 케이크; 사브레쿠키,염원라떼,가게 주변 길가 주차
나주,스테이케이션,전남 나주시 석전2길 18,126.779041161389,35.0242192393927,http://place.map.kakao.com/1275697010,"나주 스테이케이션은 다양한 종류의 까눌레를 포함한 디저트와 시그니처 메뉴인 아몬드 크림 라떼가 맛있는 분위기 좋은 카페입니다. 선물용으로도 좋은 원두와 머그잔 세트도 구매 가능하며, 밤에도 멋진 야경을 즐길 수 있습니다.",감성적인; 모던한; 분위기 좋은; 아늑한; 포근한,나들이; 데이트; 디저트; 수다; 카페 투어,고소한; 달달한; 맛있는; 부드러운; 진한,가족; 어린이 동반; 연인; 친구·지인,까눌레; 라떼; 마들렌; 브라우니; 커피; 케이크,까눌레; 브라우니,아메리카노; 아몬드 크림 라떼,주차 가능
나주,이디야커피 나주빛가람종합병원점,전남 나주시 도민길 24-3,126.7990399199435,35.02369875445815,http://place.map.kakao.com/1459295257,"나주 혁신도시의 다양한 카페들은 맛있는 디저트와 음료를 제공하며, 편안한 분위기 속에서 여유로운 시간을 보낼 수 있는 공간을 제공합니다. 일부 카페는 뷰가 좋거나 애견 동반이 가능하며, 주차 정보 등도 확인 가능합니다.",감성적인; 깔끔한; 넓은; 아늑한; 편안한,디저트; 수다; 업무; 카페 투어; 휴식,고소한; 달달한; 맛있는; 신선한,가족; 반려동물 동반; 연인; 친구·지인; 혼자,마카롱; 에이드; 커피; 케이크; 크로플,딸기티라미수; 마카롱; 말렌카; 크루아상; 휘낭시에,드립커피; 라떼; 아메리카노; 커피; 콜드브루,정보 없음; 주차 가능
나주,ggtpot,전남 나주시 남평읍 동촌로 236-42,126.87049693534996,35.05142595466654,http://place.map.kakao.com/1514472393,"나주 은행나무 수목원에 위치한 GGT POT는 다양한 디저트와 음료를 판매하며, 넓은 공간과 편안한 분위기를 자랑합니다. 특히 은행나무 시즌에 방문하면 아름다운 풍경을 감상하며 인생샷을 남기기 좋습니다. 애견 동반이 가능하며, 아이들과 함께 방문하기에도 적합합니다.",자연친화적인; 편안한; 평화로운; 풍경이 좋은; 힐링되는,가족 나들이; 데이트; 사진 촬영; 산책; 카페 투어,고소한; 달달한; 따뜻한; 상큼한,가족; 반려동물 동반; 아이와 함께; 연인,수제차; 에이드; 젤라또; 커피; 케이크; 피자,마늘바게트; 모카번; 밤파이; 티라미슈 케이크,아이스아메리카노,주차 가능; 주차 넓음
나주,메가MGC커피 나주대방엘리움점,전남 나주시 중야1길 15,126.7792850980362,35.01703479842235,http://place.map.kakao.com/1797752831,"메가MGC커피는 저렴한 가격과 대용량 사이즈를 자랑하며, 커피 외에도 티, 논커피 라떼 등 다양한 음료와 함께 쿠키, 브라우니, 티라미수, 빵 등 다채로운 디저트 메뉴를 제공합니다. 일부 지점은 주차 공간이 협소하거나 없으며, 매장 내부는 깔끔하고 쾌적하게 구성되어 있습니다.",깔끔한; 모던한; 쾌적한; 편안한,가벼운 점심; 데이트; 디저트; 수다; 카페 투어; 커피,고소한; 달달한; 부드러운; 상큼한; 진한; 짭쪼롬한,가족; 연인; 친구·지인; 혼자,디저트; 라떼; 에이드; 주스; 커피; 티,감자빵; 브라우니; 소금빵; 와앙슈; 쿠키; 티라미수,라떼; 리얼카노; 아메리카노,정보 없음; 주차 불가; 주차 협소
나주,브리즈,전남 나주시 선창길 11,126.711810844453,35.0009335362413,http://place.map.kakao.com/304828261,"나주 영산강 뷰를 자랑하는 브리즈 카페는 꿀벌 컨셉의 '더비 THE BEE' 카페로, 허니브리즈 라떼와 벌집꿀 아이스크림이 시그니처 메뉴입니다. 이곳은 디저트 종류가 다양하며, 편안하고 몽환적인 분위기를 느낄 수 있습니다.",감성적인; 몽환적인; 아기자기한; 조용한; 편안한,데이트; 디저트; 수다; 카페 투어; 휴식,달달한; 진한,연인; 친구·지인; 혼자,라떼; 아이스크림; 에이드; 커피; 케이크; 티,벌집꿀 아이스크림,허니브리즈 라떼,정보 없음
나주,메가MGC커피 나주빛가람점,전남 나주시 상야1길 7,126.78552152653202,35.02250833216787,http://place.map.kakao.com/171307217,"메가MGC커피는 다양한 커피와 음료, 쿠키, 브라우니, 소금빵 등 여러 종류의 디저트를 합리적인 가격으로 제공하는 카페입니다. 베이커리류와 음료 메뉴가 다양하여 선택의 폭이 넓고, 가성비 좋은 대용량 사이즈를 자랑합니다.",깔끔한; 모던한; 편안한,가벼운 점심; 간식; 디저트; 카페 투어,고소한; 달달한; 부드러운; 짭쪼롬한,가족; 연인; 친구·지인,디저트; 베이커리; 음료; 커피; 케이크; 쿠키,브라우니; 소금빵; 와앙슈; 쿠키,라떼; 메가리카노; 아메리카노,정보 없음
나주,메가MGC커피 나주남평점,전남 나주시 남평읍 강변2길 27-1,126.851866774111,35.041410185318,http://place.map.kakao.com/1790179243,"메가MGC커피는 저렴한 가격과 다양한 메뉴, 대용량 사이즈를 자랑하는 카페 프랜차이즈입니다. 커피 외에도 디저트, 베이커리 등 다양한 메뉴를 판매하며, 특히 티라미수, 브라우니 머핀, 소금빵 등이 인기 메뉴입니다. 가성비 좋은 커피 메뉴와 함께 디저트 종류도 다양하게 준비되어 있어 만족스러운 방문이 가능합니다.",모던한; 편안한,가벼운 점심; 데이트; 디저트; 수다; 업무; 카페 투어,고소한; 달달한; 부드러운; 진한; 짭쪼롬,가족; 연인; 친구·지인,라떼; 마카롱; 샌드위치; 아메리카노; 케이크; 크로플,브라우니 머핀; 소금빵; 티라미수,라떼; 아메리카노; 카라멜마끼아또,정보 없음
나주,투썸플레이스 나주호수공원점,전남 나주시 중야2길 14,126.78482551904533,35.01631823610232,http://place.map.kakao.com/26793563,"호수 공원 인근에 위치한 투썸플레이스 지점들은 아름다운 뷰와 함께 다양한 디저트와 음료를 즐길 수 있는 곳입니다. 특히 케이크 종류가 다양하며, 일부 지점은 주차 공간이 협소할 수 있으니 방문 전 확인이 필요합니다.",넓은 공간; 대형 카페; 뷰 좋은,가족 외식; 데이트; 디저트; 카페 투어,다양한 음료; 달달한; 맛있는 케이크,가족; 연인; 친구·지인,디저트; 병음료; 샌드위치; 아메리카노; 케이크,레드벨벳케이크; 케이크,아메리카노; 콜드브루,정보 없음; 주차 가능; 주차 협소
나주,커피로드뷰 나주혁신점,전남 나주시 상야1길 7,126.785872911028,35.0226405537826,http://place.map.kakao.com/436130333,"나주혁신도시에 위치한 커피로드뷰는 합리적인 가격에 맛있는 커피와 디저트를 즐길 수 있는 곳입니다. 다양한 케이크와 쿠키, 빵 종류가 준비되어 있으며, 특히 블렌딩티와 대용량 커피도 인기가 많습니다. 따뜻한 우드톤 인테리어와 함께 편안한 분위기에서 방문하기 좋습니다.",따뜻한; 우드톤; 편안한,데이트; 디저트; 카페 투어; 커피,달달한; 맛있는,가족; 연인; 친구·지인,라떼; 블렌딩티; 빵; 커피; 케이크; 쿠키,소금빵; 케이크; 쿠키; 크로와상,라떼; 블렌딩티; 아메리카노; 커피,정보 없음
나주,카페정원,전남 나주시 왕곡면 덕실길 27-4,126.67655702122018,34.968730330853504,http://place.map.kakao.com/1605452133,"나주에 위치한 '카페정원'은 넓고 아름다운 정원을 갖춘 대형 카페로, 피자, 파스타, 다양한 디저트와 음료를 즐길 수 있습니다. 가족, 연인, 친구와 함께 방문하여 여유로운 시간을 보내기 좋으며, 애견 동반도 가능합니다. 넓은 주차 공간이 마련되어 있습니다.",대형; 아름다운; 여유로운; 예쁜; 정원; 힐링,나들이; 디저트; 브런치; 산책; 식사; 카페 투어,다양한; 두툼한; 바삭한; 신선한; 촉촉한,가족; 애견 동반; 어린이; 연인; 친구,디저트; 브런치; 음료; 커피; 파스타; 피자,구황작물 빵; 빙수; 스콘; 와플; 휘낭시에,생강라떼; 수제청귤티; 아메리카노,넓음
나주,공간,전남 나주시 그린로 331,126.794400054979,35.0160103363118,http://place.map.kakao.com/257509199,"나주 지역 카페들은 디저트와 음료 맛집으로 유명하며, 독특한 공간 구성과 인테리어로 방문객들에게 힐링을 선사합니다. 넓은 주차 공간과 다양한 메뉴를 갖춘 곳들이 많아 편안하게 방문하기 좋습니다.",감성적인; 고택; 모던한; 아늑한; 유럽풍; 편안한,나들이; 데이트; 디저트; 수다; 카페 투어; 휴식,고소한; 달달한; 맛있는; 신선한; 진한; 특별한,가족; 반려동물 동반; 어린이 동반; 연인; 친구·지인,롤케이크; 스콘; 커피; 케이크; 크로플; 타르트,까눌레; 롤케이크; 스콘; 앙버터 크루아상; 에그타르트,아메리카노; 아인슈페너; 핸드드립,주차 가능; 주차 넓음; 주차 불가; 주차 협소
나주,카페 소감&나주미술관,전남 나주시 산포면 예림길 19-4,126.81027148685592,35.01888183830995,http://place.map.kakao.com/1926474268,"나주 카페소감&미술관은 다양한 전시와 함께 드로잉 체험, 맛있는 디저트와 음료를 즐길 수 있는 공간입니다. 오란다, 에그타르트, 수제 바스크 케이크 등의 디저트와 피자, 빙수 메뉴도 준비되어 있습니다. 넓은 주차 공간을 갖추고 있어 방문이 편리합니다.",문화 예술; 여유로운; 이색적인; 전시 관람; 편안한,가족 나들이; 데이트; 디저트; 체험; 카페 투어,고소한; 달달한; 담백한; 신선한,가족; 반려동물 동반; 아이와; 연인; 친구·지인,빙수; 에그타르트; 오란다; 커피; 케이크; 피자,바스크 케이크; 에그타르트; 오란다,라떼; 아메리카노,주차 가능; 주차장 넓음
나주,강물위에 쓴 시,전남 나주시 남평읍 강변1길 50,126.850805657002,35.0439345409305,http://place.map.kakao.com/1005540029,"드들강 강변에 위치한 '강물 위에 쓴 시' 카페는 시원한 강변 뷰와 함께 다양한 차와 커피, 그리고 디저트를 즐길 수 있는 곳입니다. 전반적으로 조용하고 편안한 분위기이며, 친절한 서비스로 재방문 의사를 높입니다.",강변뷰; 조용한; 편안한,디저트; 차; 커피,달달한; 쓴커피,가족; 연인; 친구·지인,바닐라라떼; 아메리카노; 오미자차; 커피콩빵,배낭시에,,정보 없음
나주,카페다화랑,전남 나주시 문평면 산호평산길 100,126.60142821393643,35.03430021748525,http://place.map.kakao.com/761559619,"나주 지역의 다양한 디저트 카페들은 맛있는 커피와 디저트 메뉴를 제공하며, 일부 카페는 넓은 공간과 독특한 인테리어로 특별한 경험을 선사합니다. 가족, 친구, 연인과 함께 방문하기 좋으며, 일부 카페는 아이와 함께 방문하기에도 적합합니다.",감성적인; 넓은 공간; 독특한 인테리어; 편안한,가족 모임; 데이트; 디저트; 카페 투어,달달한; 맛있는 커피; 신선한,가족; 어린이 동반; 연인; 친구·지인,롤케이크; 마카롱; 케이크; 쿠키; 크루아상; 타르트,까눌레; 롤케이크; 스콘; 타르트; 티그레,커피,주차 가능
나주,이수에카페,전남 나주시 그린로 317-15,126.79406360159,35.0156095535788,http://place.map.kakao.com/156580184,"나주 혁신도시에 위치한 이수에 카페는 귀여운 마카롱과 크로플 등 다양한 디저트를 맛볼 수 있는 곳입니다. 조용하고 편안한 분위기에서 넓은 공간과 함께 여유로운 시간을 보내기 좋으며, 가족, 친구, 연인 등과 방문하기에 적합합니다.",감성적인; 넓은; 조용한; 편안한,가족 모임; 데이트; 디저트; 수다; 카페 투어,달달한; 신선한,가족; 연인; 친구·지인,마카롱; 아메리카노; 케이크; 크로플; 팥빙수,마카롱; 크로플,아메리카노,정보 없음
나주,카페744,전남 나주시 정렬사길 15,126.714686258952,35.0435465839119,http://place.map.kakao.com/468648082,"나주 지역의 다양한 디저트 카페들을 소개하며, 각 카페마다 특색 있는 메뉴와 분위기를 자랑합니다. 일부 카페는 넓은 공간과 포토존을 갖추고 있으며, 방문 목적에 따라 다양한 선택지를 제공합니다. 커피 맛과 디저트의 퀄리티에 대한 긍정적인 평가가 많습니다.",감성적인; 넓은; 대형; 모던한; 예쁜; 편안한,데이트; 디저트; 브런치; 수다; 카페 투어,고소한; 달달한; 담백한; 맛있는; 신선한,가족; 반려동물 동반; 어린이 동반; 연인; 친구·지인,롤케이크; 스콘; 케이크; 쿠키; 크로플; 타르트,롤케이크; 스콘; 크로플,커피,주차 가능
나주,카페 더뷰,전남 나주시 영산강변로 510,126.732046212981,35.0370854550886,http://place.map.kakao.com/559049335,"카페 더뷰는 탁 트인 영산강 뷰와 모던한 화이트톤 인테리어를 자랑하는 신상 카페입니다. 이곳은 업그레이드된 음료와 디저트를 즐길 수 있으며, 창밖으로 보이는 멋진 풍경 덕분에 여유로운 시간을 보내기 좋습니다. 특히 쌀가루로 만든 글루텐프리 디저트도 준비되어 있어 건강을 생각하는 방문객에게도 추천할 만합니다.",감성적인; 고급스러운; 모던한; 쾌적한,가족; 데이트; 디저트; 카페 투어,고소한; 달달한; 담백한,가족; 어린이 동반; 연인; 친구·지인,라떼; 에이드; 와플; 커피; 케이크; 티,갸또 케이크; 와플,아메리카노; 커피,가게 앞 가능
나주,소나무카페,전남 나주시 금성관길 44-12,126.716397539057,35.0345467724633,http://place.map.kakao.com/287454905,"나주 디저트 카페들은 다양한 종류의 디저트와 맛있는 커피를 제공하며, 넓은 공간과 독특한 인테리어로 방문객들에게 좋은 경험을 선사합니다. 특히 롤케이크, 스콘, 쿠키 등은 인기 메뉴로 손꼽히며, 일부 카페는 공간 이용료가 음료 가격에 포함되어 있습니다.",감성적인; 모던한; 아늑한; 유럽풍; 편안한,가족; 데이트; 디저트; 카페 투어; 커피,겉바속촉; 고소한; 달달한; 담백한; 신선한,가족; 어린이 동반; 연인; 친구·지인; 혼자,롤케이크; 스콘; 커피; 케이크; 쿠키; 크로플,롤케이크; 스콘; 에그타르트; 쿠키; 티그레,밀크티; 아메리카노; 카페라떼; 커피,주차 가능
나주,더벤티 나주혁신점,전남 나주시 우정로 75,126.7871767093898,35.02395615475486,http://place.map.kakao.com/904358191,"나주혁신도시에 위치한 여러 카페들은 다양한 디저트와 커피 메뉴를 제공하며, 통유리를 통해 탁 트인 전망을 즐길 수 있는 곳이 많습니다. 일부 카페는 밤 12시까지 영업하며, 친절한 서비스와 함께 가격 부담 없이 디저트와 커피를 맛볼 수 있어 방문객들의 만족도가 높습니다.",감성적인; 고급스러운; 모던한; 북적이는; 빈티지스러운; 편안한,간식; 데이트; 디저트; 수다; 카페 투어,고소한; 달달한; 진한; 촉촉한; 크리미한,가족; 연인; 친구·지인; 혼자,디저트; 샌드위치; 아이스크림; 커피; 케이크; 크루아상,소금빵; 케이크; 크루아상,스무디; 아메리카노; 크림라떼,가게 앞; 건물 주차장; 주차 가능
나주,베리타블,전남 나주시 왕건길 33-10,126.71230720769792,35.01748041150838,http://place.map.kakao.com/856715319,"나주 구도심 송월동에 위치한 카페 '베리타블'은 예쁜 분위기, 다양한 디저트와 맛있는 음료를 즐길 수 있는 곳입니다. 특히 무화과 철을 맞아 무화과 디저트가 인상적이며, 해외 같은 외관도 매력적입니다.",감성적인; 예쁜; 외쿡느낌,가벼운 점심; 디저트; 카페 투어,달달한; 담백한; 맛있는,연인; 친구·지인,디저트; 에그타르트; 커피; 케이크; 파운드; 휘낭시에,무화과파운드; 에그타르트; 초코무화과휘낭시에,코코넛커피,주차 가능
나주,카페마당,전남 나주시 남평읍 풍림죽림길 86,126.866189048754,35.0441219407748,http://place.map.kakao.com/31834155,"나주 대형카페 카페마당은 넓은 마당과 한옥 인테리어가 특징이며, 쌈돈까스, 케이크, 빙수 등 다양한 식사 메뉴와 디저트를 즐길 수 있습니다. 속쓰림 없이 고소한 아메리카노와 청포도 에이드도 인기 메뉴이며, 넓은 주차장과 아이 동반 시설을 갖추고 있어 가족 방문객에게도 좋습니다.",넓은; 넓은 마당; 아늑한; 정원; 편안한; 한옥,가족; 데이트; 디저트; 브런치; 외식; 카페 투어,고소한; 달달한; 담백한; 신선한,가족; 어린이 동반; 연인; 친구·지인,빙수; 쌈돈까스; 아메리카노; 청포도에이드; 케이크; 피자,마카롱; 빙수; 스콘; 아이스크림; 케이크,마당슈페너; 아메리카노,넓은 주차장
나주,이화림,전남 나주시 영나로 2316-9,126.725352361862,34.9833203940572,http://place.map.kakao.com/1205000806,"나주에 위치한 대형 카페 이화림은 '배꽃을 품은 숲'이라는 뜻을 지니고 있으며, 자연 속에서 편안하게 머물기 좋은 공간입니다. 다양한 종류의 베이커리와 디저트, 음료 메뉴를 갖추고 있으며, 넓은 주차 공간과 야외 정원이 마련되어 있어 아이들이나 반려동물 동반 방문에도 좋습니다.",감성적인; 고요한; 넓은; 자연친화적인; 편안한,가족; 디저트; 반려동물 동반; 카페 투어; 휴식,고소한; 꾸덕한; 달달한; 산미 없는; 쫀득한,가족; 반려동물 동반; 어린이 동반; 연인; 친구·지인,머핀; 샌드위치; 커피; 케이크; 쿠키; 크루키,말렌카 허니케이크; 에그타르트; 크루키,아메리카노; 연유라떼; 이화라떼,주차 가능; 주차 넓음
나주,커피혁신,전남 나주시 우정로 165,126.7971748661,35.0263988838506,http://place.map.kakao.com/148715920,"나주 혁신도시에는 다양한 디저트와 커피를 즐길 수 있는 카페들이 많습니다. 특히 쿠키, 까눌레, 스콘 등 디저트 맛집으로 소문난 곳들이 있으며, 일부 카페는 야경이나 호수공원 뷰를 제공합니다. 직장인 점심 후나 혼커, 데이트 장소로도 적합합니다.",감성적인; 깔끔한; 분위기 좋은; 아늑한; 이국적인; 조용한,데이트; 디저트; 수다; 업무; 카페 투어; 혼커,고소한; 달달한; 신선한; 씁쓸한; 진한; 크리미한,가족; 연인; 친구·지인; 혼자,까눌레; 라떼; 스콘; 아인슈페너; 케이크; 쿠키,까눌레; 스콘; 쿠키,드립커피; 아메리카노; 콜드브루,정보 없음; 주차 가능; 주차 협소
나주,카페하루,전남 나주시 세지면 세지로 414-1,126.74489858255,34.9186235685281,http://place.map.kakao.com/1721082932,각골공원 2층에 위치한 '카페 하루'는 일리 원두를 사용하는 아메리카노와 함께 훌륭한 디저트를 제공합니다. 사장님이 1층 카페도 함께 운영하여 디저트 맛이 뛰어납니다.,감성적인; 조용한,디저트; 카페 투어,달달한; 맛있는,연인; 친구·지인,디저트; 아메리카노,디저트,아메리카노,정보 없음
나주,메가MGC커피 나주혁신도시점,전남 나주시 상야4길 21,126.791794959589,35.0219261500387,http://place.map.kakao.com/2098450753,"나주혁신도시의 다양한 카페들은 각기 다른 매력을 자랑합니다. 베러먼데이커피는 건강한 음료와 디저트, 메가커피는 가성비 좋은 메뉴, 프랭크커핀바는 유럽 감성 인테리어와 맛있는 커피와 디저트를 제공합니다. 르몬은 커피와 디저트가 맛있고, 소로는 깔끔한 분위기를 느낄 수 있습니다.",감각적인; 깔끔한; 아기자기한; 유럽감성; 이국적인,가벼운식사; 데이트; 디저트; 카페투어; 커피,달콤한; 맛있는; 부드러운; 신선한; 진한,가족; 연인; 친구·지인; 혼자,디저트; 샌드위치; 스무디; 에이드; 커피; 티,머핀; 케이크; 쿠키; 크로플,라떼; 아메리카노; 에스프레소,갓길주차; 주차 가능; 주차 협소
나주,반달커피 나주혁신점,전남 나주시 중야2길 29,126.78464591011078,35.017124651517726,http://place.map.kakao.com/1141805355,"나주혁신도시에 위치한 GT커피는 시그니처 메뉴와 다양한 디저트를 합리적인 가격에 즐길 수 있는 신상 대형 카페입니다. 넓은 실내 공간과 친절한 서비스, 늦은 시간까지 영업하는 점이 특징이며, 건물 주차장을 2시간 무료로 이용할 수 있습니다.",감성적인; 깔끔한; 대형; 모던한,데이트; 디저트; 수다; 카페 투어,꾸덕한; 달달한; 진한,가족; 연인; 친구·지인,라떼; 버터바; 아메리카노; 케이크; 크루아상,버터바; 케이크; 크루아상,시그니처 라떼; 아메리카노,건물 주차장 2시간 무료
나주,카페가배당,광주 서구 눌재로 434,126.83034695698164,35.11618673245969,http://place.map.kakao.com/77868830,"광주 한옥 카페 가배당은 넓은 전용 주차장을 갖추고 있으며, 아이 동반 및 반려동물 동반이 가능하다. 다양한 디저트 메뉴와 음료를 제공하며, 특히 화로당고와 인생한빵이 시그니처 메뉴로 인기 있다.",고요한; 아늑한; 옛스러운; 한옥,가족; 나들이; 디저트; 카페 투어,고소한; 달달한; 담백한,가족; 반려동물 동반; 아이 동반,디저트; 밀크티; 빙수; 인생한빵; 커피; 화로당고,롤케이크; 인생한빵; 화로당고,밀크티; 아메리카노,넓음; 전용 주차장
나주,송정카페1913,광주 광산구 송정로8번길 17,126.791921231241,35.1362669106857,http://place.map.kakao.com/129183194,"1913 송정역시장 내에 위치한 몽블랑 디저트 카페는 광주샌드, 젤라또 와플 등 다양한 디저트를 맛볼 수 있는 곳입니다. 아기자기한 인테리어와 함께 기념품으로도 좋은 '광주샌드'를 구매할 수 있으며, 송정역에서 가까워 방문하기 편리합니다.",레트로한; 아기자기한; 아늑한,기념품; 디저트; 선물; 카페 투어,고소한; 달달한; 진한,가족; 연인; 친구·지인,샌드위치; 아이스크림; 와플; 젤라또; 호두과자,광주샌드; 와플; 젤라또,,갓길 주차; 시장 주차타워; 주차 불가
나주,카페모카(Cafe Mocha),광주 광산구 어등대로 449,126.772529452785,35.1508782574792,http://place.map.kakao.com/422103002,"발로나 카페 모카는 고급 발로나 초콜릿 파우더를 사용하여 진하고 고급스러운 맛을 자랑하며, 제주 말차 디저트와 함께 즐기기 좋습니다. 또한, 다양한 디저트와 음료 메뉴를 제공하여 방문객들의 만족도를 높입니다.",고급스러운; 진한,디저트; 카페 투어,고급스러운; 달달한; 진한,,까눌레; 디저트컵; 라떼; 카페 모카,제주 말차 디저트,발로나 카페 모카,정보 없음
나주,커피베이 광주공항점,광주 광산구 상무대로 420-25,126.81067622405048,35.14020416060212,http://place.map.kakao.com/1034671951,"커피베이 광주화정점은 500원 추가 시 디카페인 변경이 가능한 착한 가격의 커피와 다양한 베이커리, 쿠키 등 디저트를 제공합니다. 꿀 수박 주스와 스무벨라 등 음료 메뉴도 갖추고 있어 가볍게 즐기기 좋습니다.",감성적인; 편안한,가벼운 점심; 디저트; 카페 투어,달달한,가족; 연인; 친구·지인; 혼자,베이커리; 스무디; 주스; 커피; 쿠키,베이커리; 쿠키,커피,정보 없음
담양,까망감,전남 담양군 용면 추월산로 900-9,127.00008585922834,35.395830657177285,http://place.map.kakao.com/583154547,"담양에 위치한 까망감 카페는 토종 먹감을 활용한 특색 있는 수제 디저트와 다양한 음료를 제공하는 곳입니다. 넓은 공간과 감각적인 인테리어, 아름다운 정원 뷰를 자랑하며, 반려동물 동반도 가능하여 편안한 시간을 보낼 수 있습니다.",감성적인; 아름다운; 정원뷰; 편안한; 힐링,가족; 데이트; 디저트; 사진 촬영; 카페 투어,달달한; 담백한; 수제; 특색있는,가족; 반려동물 동반; 연인; 친구·지인,까망감빵; 브라우니; 솔낭시에; 스콘; 아메리카노; 케이크,감 모양 빵; 까망감빵; 홍시 케이크,까망슈페너; 아메리카노,주차 가능
담양,아우터베이크하우스 담양점,전남 담양군 담양읍 시산1길 53,126.975677276889,35.3236028487698,http://place.map.kakao.com/690703670,창고를 개조한 담양의 대형 카페 아우터베이크하우스는 넓은 주차 공간과 함께 귀엽고 맛있는 디저트와 다양한 음료를 즐길 수 있는 곳입니다. 조용하고 감성적인 분위기 속에서 여유로운 시간을 보내기 좋습니다.,감성적인; 넓은; 아늑한; 엔틱한; 조용한,데이트; 디저트; 수다; 카페 투어; 힐링,달달한; 맛있는; 신선한,가족; 아기랑; 어린이 동반; 연인; 친구·지인,디저트; 라떼; 스무디; 아메리카노; 컵케이크; 파운드케이크,레드벨벳 소보루; 컵케이크; 파운드케이크,아메리카노; 플랫 화이트,가게 옆 주차장; 주차 넓음
담양,담다,전남 담양군 담양읍 월광로 41,126.976594073216,35.3326902843913,http://place.map.kakao.com/1187467405,"담양에 위치한 대형 베이커리 카페 '담다'는 천연발효종과 유기농 밀가루로 만든 겉바속촉한 빵과 다양한 디저트를 판매합니다. 넓은 주차 공간과 1~3층 규모의 공간, 키오스크 주문 시스템을 갖추고 있으며, 가족 모임이나 편안한 시간을 보내기에 좋습니다.",깔끔한; 넓은; 대형; 편안한; 평화로운,가족 모임; 나들이; 데이트; 디저트; 카페 투어,겉바속촉; 달콤한; 향긋한,가족; 어린이 동반; 연인; 친구·지인,디저트; 빵; 샌드위치; 소금빵; 크로플; 파이,샌드위치; 소금빵; 앙버터 치아바타,아메리카노; 커피,주차 가능; 주차 넓음
담양,트인달,전남 담양군 창평면 창평로 594-1,127.013749215601,35.2377165706881,http://place.map.kakao.com/1209703421,"담양 창평 국밥거리의 '트인달'은 외관과 실내가 아기자기하게 잘 꾸며져 있어 사진 찍기 좋은 카페입니다. 이곳의 수제 디저트는 많이 달지 않고 담백하며, 특히 휘낭시와 버터바가 인기 메뉴입니다.",감성적인; 사진 찍기 좋은; 아기자기한,디저트; 카페 투어; 커피,담백한; 수제 디저트,가족; 연인; 친구·지인,구운 과자; 디저트; 커피,버터바; 휘낭시,아메리카노; 아포가토; 카페라떼,공용주차장
담양,담화,전남 담양군 봉산면 면앙정로 368,126.961188561644,35.2826206253114,http://place.map.kakao.com/743419657,"담양에 위치한 브런치 카페 담화는 샐러드, 리조또, 파스타 등 다양한 브런치 메뉴와 크로플, 구움과자, 케이크 등 디저트를 판매합니다. 넓고 여유로운 공간과 통창 뷰를 갖추고 있어 조용하게 식사와 디저트를 즐기기 좋습니다.",감성적인; 넓은; 여유로운; 조용한; 편안한; 햇살맛집,가족; 데이트; 디저트; 모임; 브런치; 카페 투어,달달한; 담백한; 신선한; 진한,가족; 어린이 동반; 친구·지인,디저트; 브런치; 음료; 커피; 케이크; 크로플,구움과자; 소금빵; 크로플,수제바닐라빈 라떼; 화이트 아인슈페너,정보 없음
담양,담양밤부리,전남 담양군 담양읍 죽향문화로 403,126.98900641877084,35.333095847765854,http://place.map.kakao.com/487964502,"담양 밤부리는 죽녹원 근처에 위치한 대형 베이커리 및 브런치 카페입니다. 건강을 생각한 메뉴와 함께 아이들과 방문하기 좋으며, 야외 공간과 놀이기구도 갖추고 있습니다. 가격대가 합리적인 편이며, 커피는 원두에 따라 2~3배 비싼 재료를 고집한다고 합니다.",넓은; 넓은 정원; 여유로운; 이국적인; 자연친화적인; 전원주택,가족 나들이; 디저트; 모임; 브런치; 아이와 함께; 카페 투어,건강한; 달달한; 담백한; 부드러운; 신선한,가족; 반려동물 동반; 어린이 동반; 연인; 친구·지인,돈까스; 디저트; 베이커리; 브런치; 커피; 피자,곰돌이빵; 깨찰빵; 사랑의 밤부베어; 스모어쿠키,아메리카노; 죽염라떼; 판다라떼; 팬더아트라떼,주차 가능; 주차장 넓음
담양,1003디저트카페,전남 담양군 담양읍 메타프로방스4길 11,127.005441607888,35.3220945346833,http://place.map.kakao.com/1943524120,"담양 메타프로방스에 위치한 1003디저트카페는 넓고 쾌적하며 조용한 분위기를 자랑합니다. 다양한 음료와 계절 메뉴인 팥빙수, 여름철 망고 빙수 등을 즐길 수 있으며, 넓은 주차장을 갖추고 있어 방문이 편리합니다.",감성적인; 넓은; 아기자기한; 조용한; 쾌적한; 편안한,가족 나들이; 데이트; 드라이브; 디저트; 브런치; 카페 투어,고소한; 달달한; 새콤한; 신선한; 진한,가족; 연인; 친구·지인; 혼자,디저트; 브런치; 빙수; 샌드위치; 커피; 케이크,까눌레; 망고빙수; 크로플; 팥빙수; 휘낭시에,아메리카노,넓은 주차장
담양,담설,전남 담양군 담양읍 객사4길 38-6,126.98458114668,35.3233122794257,http://place.map.kakao.com/25520097,,,,,,,,,
담양,담순로153,전남 담양군 금성면 담순로 153,127.027577671061,35.3450926469323,http://place.map.kakao.com/1555817356,"담양에 위치한 담순로153은 깔끔하고 넓은 인테리어를 자랑하며, 맛있는 디저트와 음료를 즐길 수 있는 대형 카페입니다. 특히 반려 동물 동반 가능하며, 타로 상담도 가능한 특별한 경험을 선사합니다. 매장 앞에 넓은 주차 공간이 마련되어 있어 편리하게 방문할 수 있습니다.",깔끔한; 넓은; 자연친화적인; 정원뷰,가족 나들이; 데이트; 디저트; 반려동물 동반; 카페 투어,달달한; 신선한; 인기메뉴; 쫀득한,가족; 반려동물 동반; 어린이 동반; 연인; 친구·지인; 혼자,라떼; 베이커리; 에이드; 커피; 케이크,베이커리; 케이크,라떼; 아메리카노; 콩커피,가게 앞 주차장; 주차 가능
담양,우아한마카롱,전남 담양군 담양읍 중앙로 95,126.98199922058063,35.32174720440017,http://place.map.kakao.com/187722572,"담양에 위치한 '우아한마카롱'은 마카롱, 쿠키, 케이크 등 귀여운 디저트들을 판매하는 테이크아웃 전문점입니다. 특히 마카롱 박스와 케이크가 인기이며, 대나무를 활용한 독특한 디저트들도 맛볼 수 있습니다. 달콤하면서도 너무 달지 않은 디저트들은 방문객들의 만족도를 높입니다.",감성적인; 고급스러운; 귀여운; 아기자기한; 우아한; 클래식한,간식; 기념품; 디저트; 카페 투어; 후식,고소한; 달달한; 담백한; 산미 있는; 신선한; 진한,가족; 어린이 동반; 연인; 친구·지인,마카롱; 샌드위치; 아메리카노; 케이크; 쿠키; 크러플,대나무빵; 마카롱; 케이크,대나무라떼; 식혜,주차 불가
담양,앰퍼샌드,전남 담양군 담양읍 담주4길 40,126.98066055087786,35.322875469584474,http://place.map.kakao.com/1428272269,"담양 신상 대형 카페 앰퍼샌드는 담양 시장 건물 3층에 위치하며, 넓은 주차 공간과 다양한 디저트 및 음료 메뉴를 제공합니다. 내부 공간은 심플하고 차분하며, 담양천변 풍경을 즐길 수 있는 좌석과 야외 테라스도 갖추고 있습니다.",대형카페; 신상카페; 심플한; 차분한,데이트; 디저트; 카페 투어; 커피,고소한; 달달한; 진한,가족; 연인; 친구·지인,빵; 아인슈페너; 카페라떼; 케이크; 쿠키,빵; 쿠키,아인슈페너; 카페라떼,넓은 주차장; 주차 가능
담양,담양샌드,전남 담양군 담양읍 추성로 1345,126.98534058413325,35.32003061130484,http://place.map.kakao.com/1262481131,"담양의 특산물을 활용한 샌드 쿠키와 디저트를 맛볼 수 있는 카페입니다. 귀여운 판다 장식으로 아기자기한 분위기를 자랑하며, 선물용으로도 좋은 메뉴를 다양하게 구비하고 있습니다. 주변 관광지와 가까워 방문하기 좋습니다.",감성적인; 귀여운; 아기자기한,기념품; 디저트; 선물; 여행,달달한; 바삭한; 촉촉한,가족; 연인; 친구·지인,샌드쿠키; 음료; 케이크; 쿠키,담양샌드; 캐러멜샌드쿠키,,갓길 주차; 공영주차장
담양,밀크레페,전남 담양군 월산면 담장로 67,126.967905745371,35.3304079151342,http://place.map.kakao.com/1608493610,"담양에 위치한 카페 밀크레페는 크레페 전문 디저트 맛집으로, 모던하고 깔끔한 인테리어를 자랑하며 넓은 공간과 야외석이 마련되어 있습니다. 계절별 자연 경관과 함께 달콤하고 맛있는 크레페를 즐길 수 있으며, 애견 동반도 가능합니다.",깔끔한; 넓은; 모던한; 아늑한; 자연친화적인,데이트; 디저트; 브런치; 애견 동반; 카페 투어,달콤한; 맛있는; 진한,가족; 반려동물 동반; 어린이 동반; 연인; 친구·지인,더치커피; 디저트; 아메리카노; 커피; 크레페,크레페,,주차 가능
담양,퍼프슈,전남 담양군 담양읍 태왕2로 149,126.944820251417,35.319504246786,http://place.map.kakao.com/1471446031,"담양에 위치한 퍼프슈는 통유리로 된 심플한 인테리어와 한적한 뷰를 자랑하는 디저트 카페입니다. 특히 바삭하고 달콤한 슈 페이스트리 디저트와 맛있는 커피를 즐길 수 있으며, 포토존이 많아 사진 촬영에도 좋습니다. 매장 뒤편에 주차장이 마련되어 있어 편리하게 방문할 수 있습니다.",감성적인; 넓은; 사진찍기 좋은; 심플한; 한적한,나들이; 데이트; 드라이브; 디저트; 카페 투어,달달한; 맛있는; 바삭한; 상큼한; 신선한,가족; 어린이 동반; 연인; 친구·지인,라떼; 슈; 음료; 커피; 케이크,생딸기 슈; 슈 페이스트리; 쿠키슈,라떼; 아메리카노,넓음; 주차 가능
담양,설빙 담양점,전남 담양군 담양읍 죽녹원로 90,126.985487433869,35.3229085933891,http://place.map.kakao.com/522827057,"담양 지역의 다양한 디저트 카페들을 소개하며, 각 카페는 빵, 쿠키, 초콜릿 등 다채로운 디저트 메뉴와 함께 편안하고 매력적인 공간을 제공합니다. 넓은 주차 공간을 갖춘 대형 카페부터 아늑한 분위기의 카페까지, 취향에 맞는 방문이 가능합니다.",대형; 매력적인; 아늑한; 이쁜; 편안한,가족; 데이트; 디저트; 수다; 카페 투어,고소한; 달달한; 맛있는; 신선한; 진한,가족; 반려동물 동반; 연인; 친구·지인,빵; 스무디; 아메리카노; 케이크; 쿠키; 크로플,르뱅쿠키; 베이글; 생초콜릿; 소금빵; 크림롤,아메리카노,정보 없음; 주차 가능; 주차 넓음; 주차 협소
담양,츄카츄카,전남 담양군 담양읍 메타프로방스2길 6-9,127.001618843704,35.3220117234312,http://place.map.kakao.com/797674882,"담양 메타프로방스에 위치한 츄카츄카는 알록달록하고 귀여운 디저트와 츄러스가 유명한 곳입니다. 마카롱, 젤리, 사탕 등 다양한 간식을 판매하며, 커피 맛도 좋아 디저트와 함께 즐기기 좋습니다. 아이들과 함께 방문하기 좋은 곳입니다.",귀여운; 깔끔한; 아기자기한; 알록달록한,간식; 디저트; 아이와함께,깔끔한; 달달한; 맛있는,가족; 아이와함께,마카롱; 사탕; 아메리카노; 젤리; 츄러스,마카롱; 츄러스,아메리카노,정보 없음
담양,담월,전남 담양군 월산면 도개안길 67-1,126.955356800738,35.3413353029827,http://place.map.kakao.com/1032754841,"담양의 한옥 카페 '담월'은 옛 시골집을 개조한 아늑하고 편안한 공간으로, 맛있는 디저트와 음료를 즐기며 인스타 감성 사진을 찍기 좋은 곳입니다. 봄날의 포근함과 한적함을 느낄 수 있어 여유로운 시간을 보내기 좋습니다.",감성적인; 아늑한; 인스타그래머블; 편안한; 한옥; 한적한,데이트; 디저트; 사진 촬영; 카페 투어; 휴식,달달한; 맛있는; 신선한,가족; 연인; 친구·지인,디저트; 딸기쉐이크; 차; 팥빙수,딸기쉐이크,,정보 없음
담양,오프투데이,전남 담양군 금성면 금성산성길 280,127.019618511018,35.3717690622622,http://place.map.kakao.com/918088297,"담양에 위치한 오프투데이는 고소한 베이커리 향과 다양한 음료를 즐길 수 있는 디저트 맛집입니다. 귀엽고 이색적인 수제 디저트와 함께 넓은 주차장, 푸릇푸릇한 정원 뷰를 갖추고 있어 가족 단위 방문객에게도 추천할 만한 곳입니다.",감성적인; 귀여운; 아늑한; 이색적인; 편안한,가족 나들이; 데이트; 드라이브; 디저트; 카페 투어,고소한; 달달한; 맛있는; 새콤달콤한,가족; 연인; 친구·지인,소금빵; 아메리카노; 케이크; 쿠키; 크럼블; 파이,눈사람 케이크; 쁘띠갸또; 소금빵,아메리카노; 커피,50대 이상 가능; 주차 가능; 주차 넓음
담양,카페달달,전남 담양군 담양읍 죽녹원로 68,126.98539322793769,35.32082739838715,http://place.map.kakao.com/264774386,"담양에 위치한 디저트 카페들은 아기자기하고 고급스러운 인테리어를 자랑하며, 담양을 상징하는 캐러멜 샌드 쿠키를 포함한 다양한 구움과자와 케이크 등 수제 디저트를 판매합니다. 일부 카페는 음료 또한 시그니처 메뉴를 개발하여 제공하며, 선물용으로도 추천할 만한 특색 있는 메뉴를 선보입니다.",감성적인; 고급스러운; 깔끔한; 빈티지한; 아기자기한; 유럽풍,간식; 디저트; 선물; 카페 투어,고소한; 달달한; 담백한; 부드러운; 상큼한; 진한,가족; 연인; 지인; 친구,까눌레; 샌드위치; 스콘; 케이크; 쿠키; 휘낭시에,까눌레; 캐러멜 샌드 쿠키; 쿠키슈,라떼; 아메리카노,정보 없음
담양,스댕,전남 담양군 담양읍 담주2길 33,126.981595466141,35.3223852891114,http://place.map.kakao.com/1703001542,"담양의 카페 '스댕'은 귀여운 강아지들이 손님을 맞이하는 이색적인 공간입니다. 이곳은 이전 쿠키 도우 메뉴에서 변화하여 인기 있는 소금빵과 다양한 디저트를 선보이며, 특히 아이스 바닐라 라떼와 같은 음료도 맛있다는 평입니다. 다만, 주차 공간이 협소할 수 있어 인근 공영주차장을 이용하는 것이 좋습니다.",귀여운; 아늑한; 이색적인; 힐링되는,데이트; 디저트; 수다; 카페 투어,달달한; 신선한; 진한,반려동물 동반; 연인; 친구·지인,라떼; 소금빵; 아이스티; 에이드; 주스; 쿠키,소금빵; 쿠키 도우,아이스 바닐라 라떼; 카페라떼,인근 공영주차장; 주차 협소
담양,에코카페&샌드위치,전남 담양군 담양읍 삼거리길 8-8,126.98165641348933,35.31060663594133,http://place.map.kakao.com/18455539,"담양 지역의 다양한 카페들은 샌드위치, 다양한 베이커리류, 케이크 등 다채로운 메뉴를 제공하며, 특히 샌드위치와 디저트에 강점을 보입니다. 일부 카페는 애견 동반이 가능하며, 넓은 주차 공간이나 아기자기한 인테리어를 갖춘 곳도 있습니다.",감성적인; 깔끔한; 넓은; 모던한; 아기자기한; 한옥,가족; 디저트; 브런치; 식사; 점심; 카페 투어,고소한; 달달한; 담백한; 매콤한; 신선한; 진한,가족; 반려동물 동반; 어린이 동반; 연인; 친구·지인; 혼자,라떼; 베이글; 샌드위치; 아메리카노; 케이크; 크로플,소금빵; 케이크; 크로플,라떼; 아메리카노; 에이드,골목 주차; 넓은 주차장; 정보 없음; 주차 가능; 편한 주차
담양,크렘파이샵,전남 담양군 담양읍 객사4길 38-6,126.98467791145217,35.32339431323469,http://place.map.kakao.com/1510746346,"담양에 위치한 크렘파이샵은 다양한 종류의 파이와 타르트를 맛볼 수 있는 디저트 카페입니다. 에그타르트, 딸기, 티라미수, 콘 등 다채로운 맛의 파이가 있으며, 포장도 깔끔하여 선물용으로도 좋습니다. 국수거리와 가까워 식사 후 방문하기 좋습니다.",감성적인; 예쁜 외관; 유럽 느낌,기념품; 디저트; 카페 투어; 포장,단짠; 달달한; 바삭한,가족; 어린이 동반; 친구·지인,도넛; 에그타르트; 케이크; 타르트; 파이,떡갈비 파이; 에그타르트,,주차 불가
담양,달순,전남 담양군 담양읍 객사3길 22,126.98322056942806,35.324062009156954,http://place.map.kakao.com/1760445897,"담양의 아기자기하고 한적한 분위기의 카페 달순은 선물용 디저트로도 추천할 만합니다. 수제 초콜릿과 자몽물 등 다양한 메뉴가 있으며, 사장님 혼자 운영하지만 커피와 디저트 모두 훌륭하다는 평입니다.",따뜻한; 아기자기한; 여유로운; 한적한,디저트; 선물; 커피,달달한; 상큼한; 시원한,연인; 친구·지인,디저트; 자몽물; 초콜릿; 커피,수제 초콜릿; 인절미 초콜릿,,정보 없음
담양,오란다,전남 담양군 창평면 의병로 213,127.02269640359206,35.24178841397463,http://place.map.kakao.com/1227942738,"담양에 위치한 카페들은 다양한 수제 오란다를 비롯한 디저트와 음료를 판매하며, 한옥 스타일의 공간과 조용하고 감성적인 분위기를 제공합니다. 합리적인 가격대의 메뉴와 친절한 서비스로 방문객에게 좋은 경험을 선사합니다.",감성적인; 정겨운; 조용한; 한옥; 현지인추천,가족; 데이트; 디저트; 카페 투어,달달한; 수제; 신선한,가족; 반려동물 동반; 연인; 친구·지인,샌드위치; 오란다; 커피; 케이크; 크로플; 티,밤양갱; 오란다,아메리카노,가게 앞; 주차 가능; 후면 주차장
담양,디저트마망 1호점,전남 담양군 담양읍 중앙로 78,126.98269902201218,35.32006811826084,http://place.map.kakao.com/777735575,"각기 다른 개성을 지닌 다양한 디저트 카페들의 정보를 모았습니다. 수제 디저트, 비건 베이커리, 젤라또 등 특색 있는 메뉴와 함께 편안하고 감성적인 공간을 제공하며, 일부 매장은 지역 사회의 노인 일자리 창출에도 기여하고 있습니다. 주차 정보는 매장별 상이하며, 일부는 주차가 어렵거나 협소할 수 있습니다.",감성적인; 모던한; 북적이는; 아기자기한; 조용한; 편안한,가벼운 점심; 데이트; 디저트; 수다; 카페 투어,고소한; 달달한; 담백한; 신선한; 진한,가족; 연인; 친구·지인; 혼자,마들렌; 샌드위치; 와플; 젤라또; 케이크; 크로플,생초콜릿; 소금빵; 잠봉뵈르; 치즈케이크; 타르트; 파이,라떼; 밀크티; 아메리카노; 콜드브루,가게 앞 2~3대; 정보 없음; 주차 가능; 주차 협소
담양,로즈카페,전남 담양군 담양읍 메타세쿼이아로 148,127.01589289312861,35.32911861699736,http://place.map.kakao.com/1086475116,"담양의 디저트 카페들은 다채로운 수제 디저트와 음료를 제공하며, 감성적인 인테리어와 편안한 분위기를 자랑합니다. 특히 브라우니, 소금빵, 크로플 등이 인기 메뉴이며, 일부 카페는 대나무를 활용한 독특한 디저트도 선보입니다.",감성적인; 모던한; 시골 감성; 아기자기한; 편안한; 한적한,가족 나들이; 데이트; 디저트; 수다; 카페 투어,겉바속촉; 고소한; 단짠; 달달한; 진한; 쫀득한,가족; 반려동물 동반; 어린이 동반; 연인; 친구·지인; 혼자,디저트; 브라우니; 빵; 스콘; 케이크; 쿠키,브라우니; 소금빵; 크로플,아메리카노,가게 앞 주차; 정보 없음; 주차 가능; 주차 공간 있음; 주차 협소
담양,마음,전남 담양군 담양읍 메타프로방스2길 10,127.00224350761418,35.32206218824021,http://place.map.kakao.com/1542857710,"담양에 위치한 여러 디저트 카페들은 독특한 인테리어와 맛있는 음료, 디저트를 제공하며 방문객들의 마음을 사로잡고 있습니다. 통창으로 보이는 풍경이나 감성적인 분위기, 다양한 시그니처 메뉴를 즐길 수 있어 담양을 방문하는 이들에게 추천할 만한 장소입니다.",감성적인; 시골감성; 이국적인; 조용한; 편안한,데이트; 디저트; 산책; 수다; 카페 투어,꾸덕꾸덕한; 달달한; 상큼한; 신선한; 촉촉한,가족; 반려동물 동반; 어린이 동반; 연인; 친구·지인; 혼자,라떼; 브라우니; 스콘; 아메리카노; 커피; 케이크,까망감빵; 말차 쫜득 브라우니; 솔낭시에; 젤라또; 치즈케이크; 팬케이크,바닐라 라떼; 아메리카노,정보 없음
담양,소유콘,전남 담양군 담양읍 깊은실길 84-54,127.009511890845,35.3133405067629,http://place.map.kakao.com/261423959,,,,,,,,,
담양,라온카페,전남 장성군 북하면 병풍로 963-16,126.864292988752,35.3333320436865,http://place.map.kakao.com/970375233,"담양 디저트 카페들은 다양한 디저트 메뉴와 함께 친절한 서비스, 감성적인 인테리어를 자랑합니다. 특히 브라우니, 쿠키, 케이크 등 수제 디저트가 인기이며, 일부 카페는 한옥이나 통창 뷰를 제공하여 특별한 경험을 선사합니다.",감성적인; 아기자기한; 이국적인; 이쁜; 조용한; 한옥,가족 나들이; 데이트; 디저트; 수다; 카페 투어; 휴식,겉바속촉; 고소한; 달달한; 담백한; 신선한; 진한,가족; 어린이 동반; 연인; 친구·지인; 혼자,브라우니; 빵; 스콘; 아메리카노; 케이크; 쿠키,까망감빵; 브라우니; 소금빵; 쿠키; 크로플; 파이,아메리카노,매장 앞 주차; 주차 가능; 주차 공간 있음; 주차장 있음
담양,월출향가,광주 북구 추암로 278,126.86883420330234,35.24015202627689,http://place.map.kakao.com/611810917,"월출향가는 광주 첨단 외곽에 위치하며, 특히 딸기를 활용한 다양한 디저트로 유명합니다. 밤 12시까지 심야 영업을 하며, 넓은 주차 공간을 갖추고 있습니다. 음료 가격은 다소 높은 편입니다.",감성적인; 넓은; 아기자기한; 옛날 카페,디저트; 브런치; 심야 영업; 카페 투어,달달한; 새콤달콤,가족; 연인; 친구·지인,디저트; 모찌; 빙수; 커피; 케이크; 크로플,딸기 디저트; 딸기 오마카세; 딸기모찌,아메리카노,주차 가능; 주차 넓음
담양,희나리목장&카페,전북특별자치도 순창군 순창읍 금산로 22,127.13451141154513,35.37845033308986,http://place.map.kakao.com/2113244849,"담양에 위치한 여러 카페들은 상하목장 아이스크림을 활용한 다양한 디저트와 음료를 제공합니다. 특히 디저트와 커피 맛에 대한 만족도가 높으며, 가족이나 친구와 방문하기 좋은 곳으로 추천됩니다. 일부 카페는 애견 동반이나 아이들을 위한 공간도 마련하고 있습니다.",감성적인; 대형; 야외; 편안한; 포토존,가족; 디저트; 아이와; 애견 동반; 카페 투어,고소한; 달달한; 부드러운; 신선한; 진한,가족; 반려동물 동반; 아이; 연인; 친구·지인,라떼; 베이글; 아이스크림; 젤라또; 케이크; 크로플,베이글; 상하목장 아이스크림; 크루키,버터스카치 라떼; 소금커피; 아메리카노,전용주차장 있음; 주차 가능
담양,배배꼬 광주일곡점,광주 북구 일곡마을로 163,126.891800229422,35.210492400135,http://place.map.kakao.com/1867208061,"광주 일곡동에 위치한 배배꼬 일곡점은 예쁜 도넛과 다양한 디저트를 맛볼 수 있는 카페입니다. 포인트 컬러 인테리어와 넓고 깔끔한 매장 공간이 특징이며, 자연광이 은은하게 들어와 디저트 타임을 더욱 즐겁게 합니다. 아이와 함께 방문하기에도 좋으며, 도넛 외에도 소금빵, 쿠키 등 다양한 디저트를 즐길 수 있습니다.",감성적인; 세련된; 아기자기한; 알록달록한,가족 모임; 디저트; 아이 동반; 카페 투어,달달한; 신선한,가족; 어린이 동반,도넛; 소금빵; 커피; 케이크; 쿠키; 파이,도넛; 소금빵; 크림 브륄레,디카페인; 아메리카노; 커피,갓길 주차 가능; 홀짝제
담양,찐만이꽈배기,전북특별자치도 순창군 순창읍 장류로 55,127.11276164108251,35.36806045565376,http://place.map.kakao.com/436194330,"담양 지역의 디저트 카페들은 빵과 디저트 맛집으로 유명하며, 특히 꽈배기, 크로플, 프렌치토스트 등이 인기 메뉴입니다. 일부 카페는 넓은 공간과 아름다운 뷰를 자랑하며, 가족 단위 방문객에게도 적합한 편안한 분위기를 제공합니다.",감성적인; 아름다운 뷰; 편안한,가족; 데이트; 디저트; 카페 투어,고소한; 달달한; 담백한,가족; 연인; 친구·지인; 혼자,꽈배기; 마카롱; 케이크; 쿠키; 크로플; 프렌치토스트,꽈배기; 크로플; 프렌치토스트,,주차 가능
담양,겟어라운지 순창발효테마파크점,전북특별자치도 순창군 순창읍 장류로 55,127.11294465929903,35.36673533243192,http://place.map.kakao.com/1487042674,"담양과 순창 지역의 카페들은 특색있는 디저트와 함께 방문하기 좋은 장소로 언급됩니다. 일부 카페는 지역 축제와 연계되거나, 주변 관광지와 함께 둘러보기 좋다는 점이 강조됩니다. 또한, 편안한 분위기와 함께 커피와 디저트를 즐길 수 있는 공간으로 소개되고 있습니다.",감성적인; 아늑한; 편안한,디저트; 차 마시기; 카페 투어; 휴식,달달한; 달콤한; 신선한,가족; 연인; 친구·지인,디저트; 라떼; 커피; 케이크; 쿠키,디저트,라떼; 커피,정보 없음
담양,린다마카롱,전북특별자치도 순창군 순창읍 장류로 300,127.1352835397855,35.37620967502089,http://place.map.kakao.com/798195531,"담양의 특색을 담은 대나무 재료를 활용한 이색 디저트와 음료를 맛볼 수 있는 카페입니다. 쫄깃하고 부드러운 식감의 죽빵과 귀여운 판다 모양의 대나무 마카롱, 달달하면서도 부담스럽지 않은 디저트들이 인기 메뉴입니다.",아기자기한; 이색적인; 특색있는,데이트; 디저트; 카페 투어,달달한; 부드러운; 쫄깃한,가족; 연인; 친구·지인,마카롱; 양갱; 죽빵; 케이크; 쿠키; 화과자,대나무 마카롱; 대나무 양갱; 대나무 죽빵,대나무 라떼,정보 없음
담양,미미당906 광주점,광주 북구 대천로 195,126.92438093542346,35.19156347543503,http://place.map.kakao.com/1986430795,"미미당906은 광주 문흥동에 위치한 카페로, 글루텐프리 쌀 케이크와 다양한 라이스 디저트를 판매합니다. 특히 설기 케이크와 모듬 케이크가 인기이며, 달지 않고 부드러운 아인슈페너도 즐길 수 있습니다.",따뜻한; 아늑한,디저트; 카페 투어,달지 않은; 부드러운,친구·지인; 혼자,아인슈페너; 케이크,모듬케이크; 설기케이크; 쌀케이크,아인슈페너,정보 없음
담양,베러데이즈,광주 북구 중문로 11,126.918309214553,35.1738064252877,http://place.map.kakao.com/399611008,"광주 북구 중흥동에 위치한 '베러데이즈'는 디저트 맛집으로 유명하며, 땡모반 주스와 같은 다양한 음료와 수제 디저트를 맛볼 수 있습니다. 나만 알고 싶은 아늑한 분위기의 카페로, 직접 만든 신선한 디저트와 친절한 서비스가 특징입니다.",감성적인; 아늑한; 예쁜; 조용한,가벼운 점심; 디저트; 수다; 카공; 카페 투어,달달한; 신선한; 진한; 촉촉한,연인; 친구·지인; 혼자,땡모반; 샌드위치; 스콘; 케이크; 크루키; 휘낭시에,스콘; 크루키; 휘낭시에,수박주스; 카페라떼,골목주차; 공영주차장; 주차 불가
담양,온다방,광주 북구 고운로5번길 6,126.89919349709898,35.1821800490689,http://place.map.kakao.com/185593911,"담양에 위치한 정미다방은 옛 정미소를 개조한 독특한 공간에서 맛있는 디저트와 음료를 즐길 수 있는 카페입니다. 특히 휘낭시에와 에그스콘 등 다양한 디저트 라인업을 갖추고 있으며, 현대적이고 깔끔한 내부 인테리어와 조용한 분위기가 특징입니다. 주차는 가게 앞 골목이나 근처 공영주차장을 이용해야 합니다.",감성적인; 깔끔한; 아늑한; 이색적인; 조용한; 현대적인,가족 나들이; 데이트; 디저트; 카페 투어; 후식,고소한; 달달한; 부드러운; 진한,가족; 연인; 친구·지인; 혼자,라떼; 아메리카노; 에그스콘; 케이크; 휘낭시에,에그스콘; 휘낭시에,바닐라빈라떼; 아메리카노,골목주차; 공영주차장 이용
담양,빈드럭스,광주 북구 서하로 202-16,126.90259151488,35.186689607326,http://place.map.kakao.com/681612912,"빈드럭스는 쌀 베이글을 포함한 다양한 디저트와 커피 메뉴를 제공하는 카페입니다. 감성적인 인테리어와 편안한 공간 구성으로 재방문율이 높으며, 일부 지점은 무등산 뷰를 자랑합니다. 키오스크 주문 방식이며, 주차 공간이 마련되어 있어 편리하게 방문할 수 있습니다.",감성적인; 넓은; 모던한; 이쁜; 조용한; 편안한,데이트; 디저트; 친구·지인; 카페 투어; 커피,고소한; 달달한; 담백한; 신선한,가족; 연인; 친구·지인; 혼자,베이글; 스콘; 아메리카노; 에그타르트; 케이크; 쿠키,버터바; 쌀베이글,아인슈페너; 콜드브루,가게 앞 주차; 주차 가능
담양,요거트아이스크림의정석 광주일곡점,광주 북구 설죽로 518-4,126.898689861617,35.2049451308828,http://place.map.kakao.com/1054391548,"요거트 아이스크림의 정석 '요아정'은 다양한 토핑과 조합으로 취향에 맞게 즐길 수 있는 디저트 맛집입니다. 담백하고 꾸덕한 요거트 아이스크림은 신선한 과일과 잘 어울리며, 키오스크를 통해 편리하게 주문할 수 있습니다.",깔끔한; 꾸덕한; 담백한,간식; 디저트; 카페 투어,담백한; 시큼새콤한; 신선한,가족; 연인; 친구·지인,과일; 아이스크림; 요거트,요거트 아이스크림,,정보 없음
담양,카페그림,전남 장성군 장성읍 단풍로 501,126.81640694942855,35.34321950778804,http://place.map.kakao.com/1274444143,"담양의 여러 디저트 카페들은 독특한 컨셉과 매력적인 분위기를 자랑합니다. 각 카페는 이국적인 정원, 현대적인 인테리어, 레트로 감성 등 다채로운 공간 구성과 함께 수제 쿠키, 쁘띠수플레, 딸기파르페 등 시그니처 디저트를 선보입니다. 가족, 연인, 친구와 함께 방문하여 여유로운 디저트 타임을 즐기기 좋은 곳들이 많습니다.",감성적인; 레트로; 아기자기한; 이국적인; 현대적인,데이트; 디저트; 사진 촬영; 카페 투어; 휴식,달달한; 달콤한; 바삭한; 폭신한,가족; 연인; 친구·지인,수플레; 스콘; 음료; 케이크; 쿠키; 파르페,딸기파르페; 르뱅쿠키; 쁘띠수플레,,정보 없음
담양,요거프레소 옥과점,전남 곡성군 옥과면 대학로 150,127.135945941298,35.2762951582278,http://place.map.kakao.com/195705850,"다양한 종류의 에그타르트와 달콤한 케이크, 메리딸기 등 맛있는 디저트를 즐길 수 있는 카페입니다. 가족과 함께 방문하여 디저트를 맛보기에 좋습니다.",달콤한; 편안한,가족 모임; 디저트,달달한,가족,메리딸기; 에그타르트; 케이크,메리딸기; 에그타르트; 케이크,,정보 없음
담양,켈리토스트카페&다옴,전북특별자치도 순창군 순창읍 옥천로 38,127.140768080818,35.376031256828,http://place.map.kakao.com/406111266,,,,,,,,,
담양,커피앤뷰,광주 북구 하백로 22,126.89074427042817,35.18957465144299,http://place.map.kakao.com/19452470,"시청역 인근의 커피앤시가렛은 탁 트인 시티뷰와 함께 커피 맛에 진심인 카페로, 고급스러운 디저트를 즐기기 좋다. 송도 롱비치커피앤브래드는 멋진 조경과 바다, 인천대교 뷰를 자랑하며, 다양한 베이커리 메뉴를 합리적인 가격에 제공한다. 하우스 커피 앤 디저트는 장충단공원 안에 위치한 한옥 카페로, 자연 속에서 편안한 분위기와 맛있는 커피, 디저트를 즐길 수 있으며 애견 동반도 가능하다.",시티뷰; 아늑한; 오션뷰; 자연; 편안한; 한옥,데이트; 디저트; 뷰 감상; 산책; 커피; 휴식,고소한; 달달한; 산미 없는; 진한,가족; 반려동물 동반; 어린이 동반; 연인; 친구·지인,디저트; 모카소금빵; 베이커리; 아이스 아메리카노; 커피; 플랫 화이트,디저트; 소금빵,스페셜티 커피; 아메리카노,주차 가능; 주차 협소
담양,달과자,광주 북구 하서로 446,126.875930216287,35.2142871893276,http://place.map.kakao.com/165027429,,,,,,,,,
담양,돌담,전남 담양군 창평면 돌담길 15-39,127.018307218573,35.236974157628,http://place.map.kakao.com/2026482811,"담양 돌담 카페는 정성이 담긴 수제 디저트와 시그니처 메뉴인 소금 커피가 맛있는 곳입니다. 특히 딸기생크림케이크와 인절미케이크가 추천 메뉴이며, 한국적인 아름다움이 느껴지는 한옥 공간에서 여유로운 시간을 보낼 수 있습니다. 디카페인 커피도 준비되어 있으며, 아이와 함께 방문하기에도 좋습니다.",아름다운; 이색적인; 전통; 조용한; 한옥,디저트; 아이와 함께; 카페 투어; 커피; 휴식,고소한; 달달한; 신선한; 진한,가족; 어린이 동반; 연인; 친구·지인; 혼자,빙수; 인절미; 차; 커피; 케이크,딸기생크림케이크; 소금커피; 인절미케이크,디카페인커피; 소금커피,정보 없음; 주차 가능
담양,놀,전남 담양군 대전면 강의길 66,126.904850104328,35.2646671416346,http://place.map.kakao.com/215667768,"담양의 대형 디저트 카페들은 아이들이 뛰어놀 수 있는 넓은 공간과 다양한 놀이 시설을 갖추고 있어 가족 단위 방문객에게 인기가 많습니다. 맛있는 디저트와 음료를 즐기며 편안한 시간을 보낼 수 있으며, 일부 카페는 반려동물 동반도 가능합니다.",감성적인; 넓은; 잔잔한; 쾌적한; 편안한,가족; 데이트; 디저트; 아이 동반; 카페 투어,다양한; 달콤한; 맛있는,가족; 반려동물 동반; 어린이 동반; 연인,디저트; 베이커리; 음료; 커피; 케이크,소금빵; 수제 디저트; 양갱; 케이크; 티라미수,라떼; 시그니처 메뉴; 아메리카노; 필터 커피,주차 가능; 주차 넉넉
담양,힙커피로스터스,전남 담양군 봉산면 유산길 33,126.957913642337,35.2535025318028,http://place.map.kakao.com/588295701,담양 힙커피로스터스는 맛있는 커피와 제철 재료로 만든 다양한 수제 디저트를 즐길 수 있는 곳입니다. 특히 감성적인 분위기와 함께 논 뷰를 감상하며 여유로운 시간을 보내기 좋습니다. 애견 동반 및 어린이가 이용하기에도 적합한 공간을 제공합니다.,감성적인; 넓은; 모던한; 편안한; 한적한; 힙한,가족; 데이트; 디저트; 수다; 카페 투어; 커피,고소한; 달달한; 산미 있는; 상큼한; 신선한; 진한,가족; 반려동물 동반; 어린이 동반; 연인; 친구·지인; 혼자,디저트; 에이드; 차; 커피; 케이크; 필터커피,딸기 생크림 케이크; 소금빵; 티라미수,아메리카노; 오트넛커피; 핸드드립,주차 가능; 주차 넓음
담양,담양갤러리,전남 담양군 봉산면 면앙정로 340,126.958639362902,35.2806476455735,http://place.map.kakao.com/717117454,"담양의 갤러리 카페들은 아름다운 인테리어와 전시 작품을 감상하며 다양한 디저트와 음료를 즐길 수 있는 공간입니다. 특히, 크로플, 케이크 등 인기 메뉴와 함께 편안한 분위기 속에서 여유로운 시간을 보낼 수 있으며, 일부 카페는 특별한 뷰를 제공하기도 합니다.",감성적인; 북적이는; 엔틱한; 이색적인; 조용한; 힐링되는,데이트; 디저트; 예술 감상; 카페 투어; 휴식,고소한; 달달한; 신선한; 쌉싸름한; 진한,가족; 연인; 친구·지인; 혼자,대추차; 디저트; 레몬에이드; 쌍화차; 차; 커피,케이크; 쿠키; 크로플,바닐라 라떼; 아메리카노,주차 가능
담양,센티드 커피로스터스,전남 담양군 담양읍 천변7길 5-10,126.98169090575921,35.313691016120885,http://place.map.kakao.com/472621729,"담양에 위치한 센티드커피로스터스는 착한 가격의 커피와 다양한 디저트를 맛볼 수 있는 곳입니다. 반려동물 동반이 가능하며, 친절한 직원 응대와 독특한 공간 구성이 특징입니다. 사진 촬영 명소와 함께 방문하기 좋은 카페입니다.",감성적인; 모던한; 블랙 감성; 이쁜; 조용한,데이트; 디저트; 카페 투어; 휴식,고소한; 달달한; 진한,반려동물 동반; 연인; 친구·지인; 혼자,드립백; 브라우니; 커피; 케이크; 콜드브루,바스크 치즈케이크; 블루베리 크럼블; 초코 브라우니,아메리카노; 카페라떼; 콜드브루,주차 가능
담양,시노유,전남 담양군 무정면 무정로 716-5,127.046625915331,35.2846891476316,http://place.map.kakao.com/1670456018,"담양에 위치한 시노유는 도자기 작가 사장님의 작품을 볼 수 있는 감성적인 카페입니다. 다양한 종류의 차와 함께 적당히 달콤한 디저트를 즐길 수 있으며, 편안하고 힐링되는 분위기를 선사합니다. 매력적인 외관과 인테리어로 인생샷을 남기기 좋은 곳입니다.",감성적인; 동화속; 제주감성; 조용한; 차분한; 편안한,디저트; 사진촬영; 차; 카페투어; 힐링,달달한; 신선한; 우유맛,가족; 반려동물 동반; 어린이 동반; 연인; 친구·지인,디저트; 라떼; 말차; 에이드; 차; 커피,가끔 있는 디저트; 판나코타,아메리카노,갓길 주차 추천; 카페 앞 2대
담양,기역니은디귿,전남 담양군 월산면 담장로 114,126.96551731692,35.3344272065183,http://place.map.kakao.com/163986097,"담양의 한옥 스타일 대형 카페 '기역니은디귿'은 넓은 잔디밭과 다양한 포토존을 갖추고 있어 야외 활동과 사진 촬영에 좋습니다. 직접 만든 신선한 베이글과 디저트, 그리고 커피 메뉴를 즐길 수 있으며, 애견 동반도 가능합니다.",감성적; 넓은; 대형; 이국적; 이색적; 한옥,가족; 데이트; 디저트; 반려동물; 카페투어,고소한; 달달한; 담백한; 신선한,가족; 반려동물; 어린이; 연인; 친구,디저트; 베이글; 음료; 커피,베이글; 휘낭시에,아메리카노; 콜드브루,주차 가능; 주차 넓음
담양,플래티커피,전남 담양군 담양읍 담주3길 25-1,126.98073226256143,35.3219200655592,http://place.map.kakao.com/1509641332,"담양 죽녹원 근처에 위치한 플래티커피는 핸드드립 커피와 직접 베이킹한 디저트가 인기인 곳입니다. 원두 선택이 가능하며, 평일에는 조용하게 시간을 보내기 좋습니다. 야외 테라스 공간도 마련되어 있습니다.",감성적인; 조용한; 편안한,디저트; 카페 투어; 커피; 휴식,고소한; 달달한; 진한,연인; 친구·지인; 혼자,라떼; 커피; 핸드드립; 휘낭시에,휘낭시에,핸드드립,가게 앞 주차; 주차 가능
담양,아쥬레,전남 담양군 무정면 무정로 565,127.03388246109894,35.29304881335763,http://place.map.kakao.com/1184591384,"담양의 카페 아쥬레는 달지 않고 고소한 디저트와 음료가 특징이며, 특히 에그타르트와 소금빵이 인기 메뉴입니다. 넓은 공간과 잔디밭, 통창뷰를 갖추고 있어 편안한 휴식을 즐기기 좋으며, 애견 동반도 가능합니다.",감성적인; 넓은; 여유로운; 조용한; 편안한,가족; 데이트; 디저트; 애견 동반; 카페 투어,고소한; 달지 않은; 담백한; 신선한,가족; 반려동물 동반; 어린이 동반; 연인; 친구·지인,샌드위치; 소금빵; 아메리카노; 에그타르트; 크로플,소금빵; 에그타르트,아메리카노,주차 가능
담양,카페담양화,전남 담양군 담양읍 천변1길 15,126.981322711233,35.3176622479741,http://place.map.kakao.com/1827580401,"담양에 위치한 브런치 카페로, 다양한 수제 디저트와 음료를 맛볼 수 있습니다. 넓은 내부 공간과 깔끔한 인테리어를 갖추고 있으며, 가족 단위 방문객에게도 적합합니다.",깔끔한; 넓은; 편안한,가족; 디저트; 브런치; 카페 투어,달달한; 수제,가족; 친구·지인,디저트; 라떼; 브런치; 커피; 케이크,머랭 쿠키; 바스크 치즈 케이크; 소금빵; 애플파이,라떼; 아메리카노,정보 없음
담양,컴포즈커피 담양백동주공점,전남 담양군 담양읍 미리산길 66,126.98634232493252,35.31416933931161,http://place.map.kakao.com/246166419,"컴포즈 커피는 다양한 디저트와 저렴한 가격으로 가성비 좋은 카페로 추천됩니다. 특히 커피와 함께 즐기기 좋은 달콤한 디저트 메뉴들이 준비되어 있으며, 매장 분위기 또한 편안하게 방문하기 좋습니다.",가성비 좋은; 편안한,간식; 디저트; 카페 투어,고소한; 달달한; 맛있는,가족; 연인; 친구·지인,아이스크림; 에이드; 와플; 커피; 케이크; 쿠키,와플; 케이크; 쿠키,아메리카노,정보 없음
담양,컴포즈커피 전남담양매화점,전남 담양군 담양읍 매화길 10,126.999070973915,35.2984543809449,http://place.map.kakao.com/1934458507,"담양의 대형 카페들은 스페셜티 커피와 다양한 디저트, 베이커리를 제공하며, 일부 카페는 감성적인 인테리어와 아름다운 뷰를 자랑합니다. 가격대는 부담스럽지 않으며, 방문 목적에 따라 커피, 라떼, 시그니처 메뉴 등 선택의 폭이 넓습니다. 또한, 일부 카페는 애견 동반이나 어린이 동반도 가능하여 다양한 방문객을 맞이하고 있습니다.",감성적인; 깔끔한; 모던한; 북적이는; 예쁜; 편안한,데이트; 디저트; 수다; 카페 투어; 커피; 힐링,고소한; 달달한; 맛있는; 상큼한; 신선한; 진한,가족; 반려동물 동반; 어린이 동반; 연인; 친구·지인; 혼자,디저트; 라떼; 와플; 커피; 케이크; 쿠키,까눌레; 브라우니; 소금빵,대잎라떼; 라떼; 시그니처 메뉴; 아메리카노; 콜드브루,정보 없음; 주차 가능; 주차 넓음
담양,더리터 담양점,전남 담양군 담양읍 지침3길 5,126.983900769415,35.3158274981108,http://place.map.kakao.com/2031367763,"담양에 위치한 다양한 카페들은 빵과 디저트 맛집으로 유명하며, 특히 베이커리 카페들이 많아 선택의 폭이 넓습니다. 일부 카페는 애견 동반이나 넓은 공간을 갖추고 있어 편안한 시간을 보내기 좋습니다.",감성적인; 넓은; 대형; 모던한; 이쁜; 편안한,디저트; 베이커리; 빵; 수다; 카페 투어; 휴식,고소한; 달달한; 맛있는; 신선한; 프리미엄,가족; 반려동물 동반; 연인; 친구·지인; 혼자,디저트; 마카롱; 빵; 커피; 케이크; 쿠키,르뱅쿠키; 생초콜릿; 소금빵,아메리카노,주차 가능; 주차 넓음
담양,카페야그,전남 담양군 창평면 의병로 37,127.008963978791,35.2308856989587,http://place.map.kakao.com/1026490970,"담양 지역의 다양한 디저트 카페들을 소개하며, 특히 크로플, 파이, 쿠키, 소금빵 등 다양한 디저트 메뉴와 커피를 즐길 수 있다는 점을 강조합니다. 일부 카페는 한옥이나 식물을 활용한 감성적인 인테리어를 갖추고 있으며, 주차 정보도 일부 제공됩니다.",감성적인; 대형; 모던한; 아기자기한; 조용한; 한옥,가족; 데이트; 드라이브; 디저트; 친구·지인; 카페 투어,겉바속촉; 고소한; 단짠단짠; 달달한; 신선한; 진한,가족; 반려동물 동반; 어린이 동반; 연인; 친구·지인; 혼자,빵; 스콘; 케이크; 쿠키; 크로플; 파이,까망감빵; 대나무죽빵; 크로플,아메리카노,매장 앞 주차장; 정보 없음; 주차 가능; 주차 공간 있음; 주차 편리; 주차 협소
담양,서동진의커피랩 담양점,전남 담양군 수북면 한수동로 582,126.929266716033,35.3032468484642,http://place.map.kakao.com/336765274,"담양에 위치한 여러 카페들은 스페셜티 커피와 다양한 디저트를 제공하며, 애견 동반이나 넓은 공간 등 각기 다른 매력을 가지고 있습니다. 일부 카페는 인근 식당과의 할인 연계 서비스도 제공합니다.",감성적인; 모던한; 북적이는; 편안한,데이트; 디저트; 수다; 카페 투어; 커피,고소한; 달달한; 신선한,가족; 반려동물 동반; 어린이 동반; 연인; 친구·지인,라떼; 빵; 커피; 케이크; 쿠키; 크로플,르뱅쿠키; 초콜릿; 파이,스페셜티 커피; 아메리카노; 콜드브루,정보 없음; 주차 가능; 주차 협소
담양,카페고요,전남 담양군 봉산면 면앙정로 340,126.958652555112,35.2806440447169,http://place.map.kakao.com/1434563560,"담양 지역의 다양한 디저트 카페들은 수제 쿠키, 케이크, 크로플 등 다채로운 디저트와 함께 시그니처 음료를 제공합니다. 각 카페는 아늑하고 감성적인 인테리어를 자랑하며, 일부는 애견 동반이나 대형 스크린을 갖추고 있어 방문 목적에 따라 선택의 폭이 넓습니다. 주차 정보를 포함한 카페별 특징을 확인하고 방문 계획을 세울 수 있습니다.",감성적인; 고즈넉한; 모던한; 아늑한; 조용한; 한옥,가족; 데이트; 디저트; 반려동물 동반; 친구·지인; 카페 투어,고소한; 단짠; 달달한; 바삭한; 신선한; 진한,가족; 반려동물 동반; 어린이 동반; 연인; 친구·지인; 혼자,라떼; 소금빵; 케이크; 쿠키; 크로플; 파운드케이크,대나무죽빵; 말렌카케이크; 소금빵; 오란다; 쿠키; 크로플,바닐라라떼; 아메리카노; 연유라떼; 커피; 흑임자라떼,정보 없음; 주차 가능; 주차 협소; 주차장 마련
담양,히어로하우스,전남 담양군 담양읍 메타세쿼이아로 65,127.008551981751,35.3255626023805,http://place.map.kakao.com/1636001198,"담양 메타세쿼이아길에 위치한 히어로하우스는 직접 생산한 담양 딸기를 활용한 다양한 디저트와 음료를 제공하며, 쿠키, 만주, 찐빵 등 직접 만드는 수제 디저트가 인기입니다. 농촌 체험 프로그램도 운영하여 방문객들에게 특별한 경험을 선사합니다.",가족적; 농촌체험; 이색적인,디저트; 딸기; 체험,달달한; 새콤한; 신선한,가족; 어린이 동반,딸기; 만주; 찐빵; 쿠키,딸기만주; 죽향딸기찐빵; 쿠키,,승용차 20대; 주차 가능
담양,아빌리 담양본점,전남 담양군 담양읍 깊은실길 84-54,127.009512990486,35.3133405066764,http://place.map.kakao.com/2012797943,"담양 소아르떼에 위치한 아빌리는 수제 쿠키와 다양한 케이크, 빵을 판매하는 디저트 카페입니다. 넓은 공간과 함께 미디어아트, 사진 스팟 등 볼거리를 제공하며, 가격대도 합리적인 편입니다. 애견 동반도 가능하여 편안한 시간을 보낼 수 있습니다.",감성적인; 고즈넉한; 넓은; 예쁜; 편안한; 한적한,가족; 데이트; 디저트; 애견 동반; 카페 투어,고소한; 달콤한; 맛있는; 신선한,가족; 애견 동반; 연인,빵; 스무디; 아메리카노; 에이드; 케이크; 쿠키,수제쿠키; 케이크,아메리카노,정보 없음
담양,디저트카페달달,광주 북구 송월로49번길 1,126.913239838268,35.1882038678692,http://place.map.kakao.com/872327769,"담양의 디저트 카페들은 아기자기한 소품과 함께 다양한 구움과자, 케이크, 쿠키 등을 판매하며, 특히 담양을 상징하는 캐러멜 샌드 쿠키가 시그니처 메뉴로 인기를 끌고 있습니다. 카페 내부 공간은 빈티지하거나 유럽풍의 감성적인 인테리어로 꾸며져 있으며, 일부 카페는 야경이나 창밖 풍경을 즐길 수 있는 뷰를 제공하기도 합니다.",감성적인; 깔끔한; 빈티지; 아기자기한; 아늑한; 유럽풍,기념품; 데이트; 디저트; 선물; 수다; 카페 투어,고소한; 달달한; 부드러운; 상큼한; 진한; 쫀득한,가족; 연인; 친구·지인; 혼자,까눌레; 샌드위치; 스콘; 케이크; 쿠키; 휘낭시에,마들렌; 브라우니; 캐러멜 샌드 쿠키,라떼; 아메리카노; 크림라떼,가게 앞 주차
담양,카페드봉봉,전남 장성군 진원면 초동길 1,126.86357956989764,35.25248834724566,http://place.map.kakao.com/1858591386,"담양에 위치한 코튼드수플레는 부드럽고 달콤한 수플레 디저트를 맛볼 수 있는 카페입니다. 특히 딸기 쁘띠 수플레와 생딸기우유가 인기이며, 아늑하고 편안한 분위기에서 커피 맛도 즐길 수 있습니다. 동광주에서 10분 거리에 있어 광주 근교 드라이브 코스로도 좋습니다.",감성적인; 아늑한; 편안한,가족 나들이; 데이트; 디저트; 카페 투어,달달한; 부드러운; 신선한; 폭신한,가족; 반려동물 동반; 어린이 동반; 연인; 친구·지인,디저트; 수플레; 우유; 커피; 케이크,딸기 쁘띠 수플레,,주변 공영주차장; 주차 가능
담양,라본,광주 북구 금당마을길 61-10,126.870984310537,35.2422030984519,http://place.map.kakao.com/26505050,"광주 월출동에 위치한 라본은 조용하고 한적한 분위기에서 건강한 재료로 만든 브런치 메뉴를 즐길 수 있는 카페입니다. 포케, 파니니, 샌드위치 등 다양한 브런치 메뉴와 디저트를 판매하며, 매장 앞에 주차가 가능합니다.",분위기 좋은; 조용한; 한적한,디저트; 브런치; 카페 투어,건강한,연인; 친구·지인,디저트; 샌드위치; 파니니; 포케,,,주차 가능
담양,할리스 광주일곡점,광주 북구 송해로 81,126.89888999764591,35.20561500305231,http://place.map.kakao.com/1110128236,"할리스 광주일곡점은 1~3층으로 구성되어 있어 공부하거나 편안하게 시간을 보내기 좋습니다. 다양한 디저트 메뉴가 준비되어 있으며, 특히 겨울 생딸기가 들어간 디저트와 케이크가 인기입니다. 접근성이 좋고 24시간 운영하며 주차 공간도 넉넉하여 방문하기 편리합니다.",넓은; 스터디; 쾌적한; 편안한,공부; 디저트; 수다; 업무; 카페 투어,달달한; 맛있는; 신선한,가족; 연인; 친구·지인; 혼자,디저트; 바닐라딜라이트; 생딸기; 커피; 케이크; 휘낭시에,딸기 디저트; 케이크; 휘낭시에,바닐라딜라이트,주차 가능; 주차 널널
담양,푸른하늘모퉁이,전남 장성군 진원면 진원1길 17-12,126.84263618482,35.2751911911041,http://place.map.kakao.com/19501710,담양의 여러 카페들은 푸른 하늘과 자연 풍경을 배경으로 다양한 디저트와 베이커리를 제공합니다. 넓은 공간과 감성적인 인테리어를 갖춘 곳들이 많아 사진 촬영이나 여유로운 시간을 보내기 좋습니다. 일부 카페는 애견 동반이나 아이와 함께 방문하기에도 적합합니다.,감성적인; 넓은; 사진 찍기 좋은; 자연 친화적인,가족 나들이; 데이트; 디저트; 카페 투어,고소한; 달달한; 신선한,가족; 반려동물 동반; 어린이 동반; 연인; 친구·지인,디저트; 베이커리; 커피; 케이크; 티,디저트; 베이커리; 케이크,커피,주차 가능
담양,레터커피하우스,광주 북구 본촌마을길102번길 8,126.879462734902,35.2192319612002,http://place.map.kakao.com/533076242,"광주 본촌동에 위치한 레터커피하우스는 직접 로스팅한 커피와 다양한 디저트를 맛볼 수 있는 감성적인 카페입니다. 편지와 실링 왁스 체험도 가능하며, 따뜻하고 고즈넉한 분위기 속에서 편안한 시간을 보낼 수 있습니다. 건물 뒤편에 주차 공간이 마련되어 있습니다.",감성적인; 고즈넉한; 따뜻한; 아늑한,데이트; 수다; 카페 투어,고소한; 달달한; 진한,연인; 친구·지인,디저트; 라떼; 커피; 티; 필터커피,브리오슈; 시나몬 하트 파이; 휘낭시에,러브레터 커피; 아메리카노; 필터커피,가게 뒤편 주차 가능
담양,머문자리,광주 북구 영락공원로 170,126.91637346497672,35.23097612219034,http://place.map.kakao.com/276699661,"담양 신상 카페로, 선선한 날씨에는 야외 좌석 이용도 좋다. 1층에 퇴식구가 마련되어 있으며, 청개구리가 보너스로 등장하는 곳이다.",신상카페; 여유로운; 자연친화적,카페 투어; 휴식,,친구·지인; 혼자,,,,정보 없음
담양,컴포즈커피 전남곡성옥과점,전남 곡성군 옥과면 대학로 140,127.13495147862429,35.27578791497084,http://place.map.kakao.com/201077971,"담양과 곡성에 위치한 카페들은 다양한 디저트와 스페셜티 커피를 제공하며, 특히 핑크뮬리 명소로 유명한 곳도 있습니다. 베이커리, 케이크, 수제 쿠키 등 디저트 종류가 다양하며, 일부 카페는 애견 동반이나 좌식 테이블을 갖추고 있습니다.",감성적인; 대형; 모던한; 예쁜; 한옥; 힙한,가족; 데이트; 디저트; 브런치; 카페 투어; 커피,고소한; 달달한; 맛있는; 신선한; 진한,가족; 반려동물 동반; 어린이 동반; 연인; 친구·지인,라떼; 브런치; 에이드; 커피; 케이크; 쿠키,브라우니; 소금빵; 쿠키,라떼; 시그니처 메뉴; 아메리카노,주차 가능; 주차 공간
담양,카페림,전남 담양군 봉산면 송강정로 192,126.950024945263,35.2538023832751,http://place.map.kakao.com/2142990839,"담양에 위치한 카페림은 통창을 통해 보이는 대나무 숲 뷰가 인상적인 곳입니다. 다양한 수제 디저트와 커피 메뉴를 즐길 수 있으며, 넓은 주차 공간도 마련되어 있어 편리합니다. 조용하고 여유로운 분위기 속에서 편안한 시간을 보내기 좋습니다.",여유로운; 자연 친화적인; 조용한; 통창뷰,데이트; 디저트; 카페 투어; 휴식,수제 디저트; 진한 커피,가족; 연인; 친구·지인,디저트; 스콘; 에이드; 음료; 커피; 케이크,바스크 치즈케이크; 스콘; 티라미슈케익,라떼; 아메리카노,주차 가능; 주차 넓음
담양,구름모자,전남 담양군 대전면 병풍로 391,126.87962490182,35.2953046938735,http://place.map.kakao.com/9666705,"담양에 위치한 구름모자는 전통적인 분위기에서 수제비와 차를 즐길 수 있는 카페 겸 맛집입니다. 겉보기엔 평범한 듯 보이지만, 갓 찐 빵과 함께 나오는 뜨끈한 바지락 수제비가 인기 메뉴이며, 부모님과 함께 여유로운 시간을 보내기 좋습니다.",감성적인; 고즈넉한; 아늑한; 전통적인; 편안한,가족; 식사; 점심; 차,담백한; 뜨끈한; 시원한,가족; 부모님; 친구·지인,수제비; 에이드; 주스; 차; 커피,갓 찐 빵,아메리카노; 카페라떼; 헤이즐넛,주차 가능
담양,카페비스타,전남 담양군 대전면 병풍로 377,126.879784888533,35.2941727713644,http://place.map.kakao.com/1884649363,"담양에 위치한 카페 비스타는 저수지 뷰와 함께 여유로운 시간을 보내기 좋은 곳입니다. 직접 만든 듯한 다양한 디저트와 음료는 물론, 친절한 서비스로 좋은 경험을 선사합니다. 사진 촬영 명소로도 손색없는 공간입니다.",감성적인; 고요한; 아름다운; 편안한,가족 나들이; 데이트; 디저트; 카페 투어,맛있는; 신선한,가족; 아이 동반; 연인; 친구·지인,머핀; 브라우니; 스콘; 커피; 케이크,까망감빵; 말차 브라우니; 치즈 머핀,아메리카노,정보 없음
담양,오프더커프,전남 담양군 대전면 추성1로 425-9,126.9060850606741,35.287778512738804,http://place.map.kakao.com/196591769,"담양에 위치한 오프더커프는 200평 규모의 대형 카페로, 모래놀이터와 넓은 잔디밭이 있어 아이와 함께 방문하기 좋습니다. 매일 직접 생산하는 24가지 비건 베이커리와 케이크 등 다양한 디저트와 직접 로스팅하는 신선한 커피를 즐길 수 있습니다. 1, 2층 통창을 통해 탁 트인 풍경을 감상할 수 있으며, 편안하고 쾌적한 공간에서 여유로운 시간을 보낼 수 있습니다.",감성적인; 넓은; 대형; 쾌적한; 편안한,가족; 나들이; 디저트; 아이 동반; 커피,건강한; 상큼한; 신선한; 진한,가족; 반려동물 동반; 어린이 동반; 연인; 친구·지인,베이커리; 음료; 커피; 케이크; 타르트,딸기 타르트; 비건 베이커리,로스팅 커피,주차 가능
담양,미각&담양양갱,전남 담양군 담양읍 완동길 9-9,126.980080676961,35.3240795593519,http://place.map.kakao.com/843514655,"70년 된 폐가를 개조한 주택 개조 카페로, 천변 뷰와 함께 화학첨가물 없이 100% 수제로 만든 담양양갱과 다양한 디저트를 즐길 수 있습니다. 넓은 주차 공간과 함께 선물용으로도 좋은 고급스러운 패키지의 양갱 세트가 준비되어 있습니다.",감성적인; 고급스러운; 고즈넉한; 넓은 공간; 편안한,가족; 디저트; 선물; 카페 투어; 휴식,달달한; 담백한; 진한,가족; 반려동물 동반; 어린이 동반; 연인; 친구·지인,디저트; 선물세트; 양갱; 에이드; 차; 커피,담양양갱; 수제양갱,커피,무료 공용 주차장; 주차 가능; 주차 넓음
담양,카페더하루,전남 담양군 금성면 담순로 33,127.0189766030383,35.33732661896023,http://place.map.kakao.com/1651240520,"담양에 위치한 카페 더하루는 대형 수족관과 함께 다양한 디저트와 브런치 메뉴를 즐길 수 있는 곳입니다. 특히 키네틱 조명쇼와 야외 포토존은 방문객들에게 특별한 경험을 선사하며, 아이와 함께 방문하기 좋습니다.",웅장한; 이국적인; 이색적인; 포토존,가족; 디저트; 브런치; 아이와; 카페 투어,고소한; 달달한; 맛있는; 진한,가족; 반려동물; 아이,라떼; 브런치; 빵; 스무디; 에이드; 케이크,마늘 바게트; 케이크; 크루키,말차라떼; 복숭아 라떼,주차 가능; 주차 넓음
담양,빠라디카페(Paradise),전남 담양군 가사문학면 가사문학로 754,126.99418933016352,35.192522550558,http://place.map.kakao.com/301578444,"담양호의 멋진 뷰를 감상하며 여유롭게 커피를 즐길 수 있는 빠라디 카페입니다. 다양한 디저트와 따뜻한 차 메뉴가 준비되어 있으며, 사진 찍기 좋은 공간과 아름다운 인테리어를 갖추고 있습니다.",감성적인; 뷰 맛집; 아름다운; 한적한,데이트; 디저트; 커피,달달한,연인; 친구·지인,대추차; 땅콩크림; 레몬차; 청귤차; 케이크; 쿠키,케이크; 쿠키,,주차 가능
담양,그리트,전남 담양군 담양읍 메타프로방스4길 5,127.004759756209,35.3220765367377,http://place.map.kakao.com/353948157,,,,,,,,,
담양,크로엔젤 담양점,전남 담양군 대전면 병풍로 366,126.881223863662,35.2934981887109,http://place.map.kakao.com/1546637168,"담양에 위치한 크로엔젤은 아름다운 정원과 호수 뷰를 자랑하는 대형 베이커리 카페입니다. 제과명장이 매일 직접 구운 신선한 빵과 디저트를 다양하게 맛볼 수 있으며, 편안한 좌석과 멋진 테라스 공간을 갖추고 있습니다. 가족 단위 방문객이나 친구, 연인과의 방문에 적합하며, 디저트와 함께 산책을 즐기기에도 좋습니다.",감성적인; 대형; 북적이는; 정원뷰; 편안한; 호수뷰,가족 외식; 데이트; 디저트; 브런치; 산책; 카페 투어,달달한; 담백한; 산미 있는; 신선한; 풍미 있는,가족; 어린이 동반; 연인; 친구·지인,아메리카노; 케이크; 크로와상; 크로플; 패스츄리; 페스츄리,블루베리 크림치즈 페스츄리; 소금빵; 크로와상,아메리카노; 크로라떼,주차 가능
담양,쌍교다방,전남 담양군 봉산면 송강정로 211,126.952416104039,35.2536447103025,http://place.map.kakao.com/27355038,"담양의 정미다방은 휘낭시에와 에그스콘 등 다양한 디저트를 맛볼 수 있는 곳으로, 아늑하고 조용한 분위기를 자랑합니다. 힙커피로스터스는 소금빵이 맛있고 아름다운 뷰를 감상할 수 있는 대형 베이커리 카페입니다. 두 곳 모두 음료와 디저트 메뉴에 대한 만족도가 높습니다.",감성적인; 모던한; 아늑한; 이색적인; 조용한; 힙한,가족 나들이; 데이트; 디저트; 카페 투어; 커피,고소한; 달달한; 맛있는; 신선한,가족; 반려동물 동반; 어린이 동반; 연인; 친구·지인; 혼자,디저트; 라떼; 아메리카노; 에그스콘; 케이크; 휘낭시에,소금빵; 휘낭시에,시그니처 커피; 아메리카노,가게 앞 주차; 골목주차; 주차 가능
담양,스포트라이트커피,전남 담양군 대전면 병풍로 189,126.89197883946,35.2812157954004,http://place.map.kakao.com/585949857,"담양 한재골에 위치한 스포트라이트커피는 조용하고 감성적인 분위기에서 맛있는 디저트와 커피를 즐길 수 있는 곳입니다. 다양한 종류의 케이크, 스콘, 빵 등 직접 만든 디저트와 시그니처 메뉴를 맛볼 수 있으며, 애견 동반도 가능합니다.",감성적인; 조용한; 힙한,데이트; 디저트; 애견동반; 커피; 힐링,고소한; 달달한; 맛있는; 진한,가족; 반려동물 동반; 연인; 친구·지인,디저트; 빵; 스콘; 시그니처; 커피; 케이크,스콘; 케이크; 크림빵,드립커피; 시그니처; 콜드브루,주차 가능
담양,라라브레드 담양점,전남 담양군 월산면 화방송정길 21-14,126.955210739773,35.3369106061521,http://place.map.kakao.com/642502098,"라라브레드 담양점은 다양한 브런치, 디저트, 음료 메뉴를 판매하는 넓은 대형 카페입니다. 넉넉한 주차 공간을 갖추고 있어 가족 단위 방문객에게 편리하며, 식사하기 좋은 메뉴들도 준비되어 있습니다.",넓은; 대형; 쾌적한,가족; 데이트; 디저트; 브런치; 식사,고소한; 달달한,가족; 어린이 동반; 연인; 친구,디저트; 베이커리; 브런치; 식빵; 음료; 커피,식빵; 케이크,커피,주차 넓음
담양,갑을원한옥카페,전남 담양군 창평면 돌담길 67,127.019309137871,35.2369235264449,http://place.map.kakao.com/8698556,"담양의 100년 된 전통 한옥을 개조한 갑을원 한옥카페는 한국적인 아름다움과 함께 다양한 전통 차, 커피, 디저트를 즐길 수 있는 곳입니다. 가래떡구이, 쑥인절미구이, 수제한과모둠 등 전통 디저트와 팥빙수, 쌍화차, 대추차 등이 인기 메뉴이며, 5~6대 주차 가능한 공간이 마련되어 있습니다.",감성적인; 여유로운; 전통; 조용한; 한국적인; 한옥,가족; 데이트; 디저트; 전통차; 카페 투어; 휴식,고소한; 달달한; 담백한; 따뜻한; 신선한; 진한,가족; 부모님; 연인; 친구·지인; 혼자,디저트; 떡; 빙수; 전통차; 커피; 한과,가래떡구이; 수제한과; 쑥인절미구이,쑥라떼; 아메리카노,가게 앞 5~6대; 주차 가능
담양,명가은,전남 담양군 가사문학면 반석길 48-8,127.019791104604,35.1767563572609,http://place.map.kakao.com/7878723,"담양의 한옥 전통 찻집 명가은은 다양한 전통차와 K-디저트를 즐길 수 있는 곳입니다. 구운 인절미, 약과, 오란다 등 전통적인 디저트와 함께 아이스크림, 팥빙수 등도 준비되어 있으며, 고즈넉한 한옥 분위기 속에서 여유로운 시간을 보낼 수 있습니다.",차분한; 고즈넉한; 전통; 정적; 정적인; 한옥,데이트; 디저트; 전통차; 차 마시기; 휴식; 힐링,달달한; 삼삼한; 신선한; 호박향,가족; 연인; 친구·지인; 혼자,떡; 아이스크림; 약과; 양갱; 오란다; 인절미,구운 인절미; 양갱; 오란다; 우리밀 약과,,가게 앞 주차; 주차 가능
담양,복더빵,전남 담양군 용면 박곡길 2-3,126.986947102995,35.3622402010635,http://place.map.kakao.com/562955031,"담양에 위치한 복더빵은 우리밀로 만든 부드러운 빵과 다양한 디저트를 맛볼 수 있는 베이커리 카페입니다. 빵 종류가 다양하며, 특히 베이글 맛집으로도 알려져 있습니다. 음료 메뉴도 커피와 논커피까지 다양하게 준비되어 있어 빵과 함께 즐기기 좋습니다.",따뜻한; 아늑한; 친근한,디저트; 브런치; 빵지순례; 카페 투어,달달한; 부드러운,가족; 연인; 친구·지인,베이글; 빵; 음료; 커피; 케이크,깜빠뉴; 밤식빵; 베이글,라떼; 아메리카노; 아이스티,정보 없음
담양,담대한봄날,전남 담양군 대전면 추성1로 187,126.887015884244,35.2764981482608,http://place.map.kakao.com/1195785815,"담양에 위치한 '담대한 봄날'은 화이트 & 우드 인테리어의 아기자기하고 깔끔한 분위기를 자랑하는 디저트 카페입니다. 직접 담근 수제청으로 만든 건강한 수제차와 합리적인 가격의 스페셜티 커피, 그리고 맛있는 케이크와 크로플 등 다양한 디저트를 즐길 수 있습니다.",감성적인; 깔끔한; 아기자기한; 아늑한; 편안한,가벼운 점심; 데이트; 디저트; 수다; 카페 투어,건강한; 달달한; 신선한; 진한,가족; 어린이 동반; 연인; 친구·지인,라떼; 수제차; 수제청; 아메리카노; 케이크; 크로플,케이크; 흑당 크로플,스페셜티 커피,매장 근처 골목 주차 가능
담양,목림,전남 담양군 수북면 대흥길 75,126.941044131971,35.2932807499919,http://place.map.kakao.com/889343329,,,,,,,,,
담양,담만장,전남 담양군 용면 추월산로 1276,126.996392651987,35.4241213083282,http://place.map.kakao.com/2002091136,,,,,,,,,
담양,대담,전남 담양군 담양읍 언골길 5-4,126.983458983526,35.325237382925,http://place.map.kakao.com/806331736,"담양 대담 카페는 미술관과 함께 운영되며, 다양한 음료와 프리미엄급 디저트를 맛볼 수 있는 복합문화공간입니다. 아름다운 건축물과 자연 속에서 감각적인 분위기를 즐기며 사진 찍기 좋은 곳으로, 죽녹원, 메타세콰이어길과 가까워 방문하기 좋습니다.",감성적인; 고즈넉한; 모던한; 싱그러운; 편안한,가족 나들이; 데이트; 디저트; 카페 투어; 힐링,고소한; 달달한; 담백한; 부드러운; 진한,가족; 연인; 친구·지인,라떼; 샌드위치; 에이드; 케이크; 쿠키; 파니니,당근케이크; 얼그레이케이크; 카라멜치즈케이크,아메리카노,주차 가능
담양,그림이있는방앗간,전남 담양군 가사문학면 가사문학로 933,127.00852844938768,35.18397032937314,http://place.map.kakao.com/18318992,"담양의 '그림이 있는 방앗간' 카페는 고즈넉한 분위기에서 그림 같은 풍경을 감상하며 휴식을 취하기 좋은 곳입니다. 방앗간을 개조한 인테리어와 함께 맛있는 디저트와 커피를 즐길 수 있으며, 카페 옆 전용 주차장을 이용하면 편리하게 방문할 수 있습니다.",갤러리; 고즈넉한; 그림 같은; 이국적인,데이트; 디저트; 카페 투어; 휴식,달달한; 맛있는; 수제,가족; 반려동물 동반; 연인,디저트; 빵; 에이드; 커피; 케이크; 팥빙수,딸기 수플레; 수플레; 양갱; 팥빙수,바닐라라떼; 아메리카노; 카페라떼,도로변 주차 가능; 카페 옆 전용주차장
담양,프랭크커핀바 담양점,전남 담양군 담양읍 메타프로방스1길 13,127.00211265228,35.3226750986777,http://place.map.kakao.com/473172748,"담양 메타프로방스 단지에 위치한 프랭크커핀바 담양점은 넓고 아늑한 공간에서 다양한 디저트와 음료를 즐길 수 있는 곳입니다. 특히 밤에는 더욱 분위기 있는 야경을 감상할 수 있으며, 반려동물 동반도 가능합니다.",감성적인; 모던한; 분위기 있는; 아늑한; 이국적인; 편안한,데이트; 디저트; 수다; 카페 투어; 휴식; 힐링,달달한; 신선한; 진한,가족; 반려동물 동반; 연인; 친구·지인; 혼자,도넛; 라떼; 아메리카노; 에그타르트; 케이크; 크로플,도넛; 크로플,아메리카노; 에스프레소,가게 앞 2~3대; 주차 가능
담양,메가MGC커피 담양터미널점,전남 담양군 담양읍 중앙로 30,126.98357196483,35.3158373685882,http://place.map.kakao.com/2040320628,"메가MGC커피는 저렴한 가격에 다양한 음료와 디저트를 즐길 수 있는 프랜차이즈 카페입니다. 특히 대용량 사이즈와 신메뉴 출시로 가성비 좋은 선택지를 제공하며, 포장 및 패스오더 앱 이용도 가능합니다.",깔끔한; 쾌적한; 편안한,간식; 데이트; 디저트; 모임; 업무; 카페 투어,고소한; 달달한; 달콤; 상큼한; 짭쪼롬,가족; 연인; 친구·지인; 혼자,디저트; 라떼; 음료; 커피; 케이크; 쿠키,감자빵; 와앙슈; 티라미수,딸기라떼; 라떼; 아메리카노,정보 없음
담양,휴식애견카페,전남 담양군 가사문학면 가사문학로 1167,127.03160561789235,35.176782694165944,http://place.map.kakao.com/1556766947,"담양 애견 카페들은 커피와 함께 다양한 디저트, 식사 메뉴를 제공하며, 넓은 주차 공간과 천연 잔디 운동장을 갖춘 곳이 많습니다. 특히 '휴식애견카페'는 애견 유치원 프로그램도 운영하며, 방문객들이 반려견과 함께 편안한 시간을 보낼 수 있도록 합니다.",감성적인; 편안한; 힐링되는,디저트; 식사; 애견 동반; 휴식,고소한; 달달한; 진한,반려동물 동반,디저트; 멍푸치노; 스파게티; 치킨; 커피; 피자,베이글,,주차 가능; 주차 넓음
담양,안나의 코티지 가든,전남 담양군 용면 두메길 77,126.9874877016755,35.37423423732163,http://place.map.kakao.com/1289398185,"담양의 다양한 카페들은 디저트 맛집으로 알려져 있으며, 한국적인 멋, 감성적인 인테리어, 넓은 공간, 아름다운 뷰를 자랑합니다.  특히 까눌레, 휘낭시에, 케이크 등 다양한 디저트를 즐길 수 있으며, 데이트 코스나 가족 동반 방문에도 적합합니다.",감성적인; 대형 카페; 아름다운; 예쁜 카페; 편안한; 한국적인,가족 나들이; 데이트; 디저트; 카페 투어; 커피,고소한; 달달한; 담백한; 바삭한; 신선한,가족; 반려동물 동반; 어린이 동반; 연인; 친구·지인,까눌레; 디저트; 젤라또; 커피; 케이크; 휘낭시에,까눌레; 케이크; 휘낭시에,라떼; 아메리카노; 콜드브루,정보 없음
담양,바람꽃,전남 담양군 무정면 무옥로 117,127.094404704594,35.2664920445843,http://place.map.kakao.com/9014192,"보몽드는 숲속에 위치한 디저트 카페로, 아름다운 자연 속에서 아늑하고 편안한 시간을 보낼 수 있습니다. 다양한 디저트와 음료를 즐기며 사진 찍기 좋은 스팟을 만날 수 있습니다.",감성적인; 아늑한; 자연 속; 조용한; 편안한,데이트; 디저트; 사진 촬영; 카페 투어; 휴식,달달한,가족; 연인; 친구·지인,디저트; 음료,,,정보 없음
담양,카페온다,전남 담양군 대전면 병풍로 382,126.880176972246,35.2944408580395,http://place.map.kakao.com/804620220,"담양에는 아기자기하고 감성적인 분위기의 디저트 카페들이 많습니다. 이곳들은 맛있는 디저트와 음료뿐만 아니라, 한옥이나 통창뷰 등 특별한 공간 구성으로 방문객에게 즐거운 경험을 선사합니다. 다양한 메뉴와 친절한 서비스로 편안한 시간을 보낼 수 있습니다.",감성적인; 모던한; 아기자기한; 조용한; 편안한; 한옥,가족; 데이트; 디저트; 수다; 친구·지인; 카페 투어,고소한; 달달한; 바삭한; 진한; 쫀득쫀득,가족; 반려동물 동반; 어린이 동반; 연인; 친구·지인; 혼자,브라우니; 빵; 스콘; 케이크; 쿠키; 크로플,까망감빵; 대나무죽빵; 르뱅쿠키; 숙성프렌치토스트,아메리카노,가게 앞 주차; 정보 없음; 주차 가능; 주차 공간 있음
담양,슬담,전남 담양군 담양읍 선계길 31-6,126.995957462144,35.3406395379924,http://place.map.kakao.com/1121091916,"담양의 고즈넉한 한옥을 개조한 카페 슬담은 심플하면서도 모던한 인테리어와 편안한 분위기를 자랑합니다. 다양한 수제청 음료와 흑미떡플, 초코꿀케이크 등 맛있는 디저트를 즐길 수 있으며, 가족, 연인, 친구와 함께 방문하기 좋습니다.",감성적인; 고즈넉한; 모던한; 편안한; 한옥,가족 나들이; 데이트; 디저트; 카페 투어,달달한; 맛있는; 신선한,가족; 연인; 친구,디저트; 수제청; 음료; 커피,에그타르트; 초코꿀케이크; 흑미떡플,슬담슈페너,주차 가능
담양,라울라울,전남 담양군 담양읍 태왕2길 18-4,126.951113297818,35.3151408829484,http://place.map.kakao.com/1166886178,"담양에 위치한 라울라울 카페는 친절한 사장님과 다양한 커피, 디저트를 즐길 수 있는 플라워&식물 카페입니다. 특히 사장님이 직접 만드시는 치아바타와 싱그러운 식물들이 매력적인 곳입니다.",식물카페; 싱그러운; 아기자기한; 편안한; 플라워카페,데이트; 디저트; 커피; 휴식,맛있는 커피; 신선한,가족; 어린이 동반; 연인; 친구·지인,디저트; 음료; 치아바타; 커피,치아바타,,정보 없음
담양,삼쩜사오,전남 담양군 담양읍 삼거리길 45,126.985362357603,35.3090514331203,http://place.map.kakao.com/46118921,,,,,,,,,
담양,고서커피,전남 담양군 고서면 창평현로 222,126.97685621945,35.2232115303986,http://place.map.kakao.com/1931737887,"담양 고서에 위치한 카페 코튼드수플레는 다양한 종류의 수플레와 딸기 메뉴, 그리고 커피와 빙수 등을 맛볼 수 있는 디저트 맛집입니다. 특히 농특산물을 활용한 디저트 개발 공모전에서 당선될 만큼 독창적인 메뉴를 선보이며, 매장 분위기가 좋아 한적하게 시간을 보내기 좋습니다.",감성적인; 데이트하기 좋은; 한적한,데이트; 디저트; 수다; 카페 투어,고소한; 달달한; 담백한; 산미 없는; 진한,가족; 반려동물 동반; 연인; 친구·지인,빙수; 샌드위치; 수플레; 커피; 케이크; 파르페,딸기 수플레; 쁘띠 수플레; 티라미수 수플레,라떼; 아메리카노; 크림 커피,주차 가능; 주차 편리
담양,카페드존아웃,전남 담양군 금성면 석현길 106,127.026818380517,35.3443609361566,http://place.map.kakao.com/476052635,"담양에 위치한 카페 드 존아웃은 브런치와 디저트 메뉴를 전문으로 하는 곳으로, 유럽 감성의 인테리어와 함께 메타세콰이어 나무가 보이는 낭만적인 분위기를 자랑합니다. 브런치와 음료, 다양한 디저트를 즐길 수 있으며, 넓은 공간과 루프탑을 갖추고 있습니다.",낭만적인; 빈티지한; 엔틱한; 유럽 감성; 조용한; 특색있는,기분전환; 데이트; 디저트; 브런치; 사진 촬영; 카페 투어,달달한; 담백한; 맛있는; 상큼한,가족; 연인; 친구·지인,디저트; 브런치; 스무디; 커피; 케이크; 티,구움과자; 딸기케이크,소금커피; 아바라,주차 가능
담양,그라니타,전남 담양군 대전면 응용리 301-1,126.8807288616659,35.249452706019625,http://place.map.kakao.com/2100297585,"담양 신상 대형 카페 그라니타는 다양한 디저트와 커피 메뉴를 맛볼 수 있으며, 감각적인 인테리어와 포토존이 마련되어 있어 사진 찍기 좋습니다. 친절한 서비스와 맛있는 디저트, 음료로 편안하고 따뜻한 시간을 보낼 수 있는 곳입니다.",감성적인; 따뜻한; 모던한; 편안한; 햇살가득,가족; 데이트; 디저트; 카페 투어,고소한; 달달한; 맛있는; 진한,가족; 반려동물 동반; 어린이 동반; 연인; 친구·지인,라떼; 마카롱; 아메리카노; 케이크; 크로플; 휘낭시에,말렌카 케이크; 크루키; 휘낭시에,베이글 라떼; 아메리카노,주차 가능
담양,카페소호,전남 담양군 가사문학면 가사문학로 888,127.004501506345,35.1864420638129,http://place.map.kakao.com/8450205,"담양 카페 소호는 넓은 잔디밭과 자연 풍경을 즐길 수 있는 애견 동반 가능한 카페입니다. 다양한 디저트와 음료 메뉴가 준비되어 있으며, 특히 초콜릿 라떼와 쑥 미숫가루가 인기입니다.",감성적인; 자연; 정원; 조용한; 편안한,가족; 디저트; 애견 동반; 카페 투어; 힐링,고소한; 달달한; 맛있는; 진한,가족; 애견 동반; 연인; 친구·지인,디저트; 라떼; 빵; 음료; 치아바타; 커피,디저트; 빵; 치아바타,라떼; 아메리카노,가게 앞; 길가
담양,카페 리저브,전남 담양군 가사문학면 지실길 11,127.004093185286,35.1886017261686,http://place.map.kakao.com/1936428090,"담양에 위치한 여러 디저트 카페들은 핸드드립 커피, 더치커피, 스무디 등 다양한 음료와 함께 찹쌀모찌, 다쿠아즈, 약과, 베이글칩, 케이크, 프렌치토스트, 크로플, 쿠키, 빵 등 다채로운 디저트를 제공합니다. 일부 카페는 감성적인 분위기와 함께 친절한 서비스, 독특한 인테리어를 갖추고 있으며, 넓은 주차 공간이나 편리한 접근성을 제공하기도 합니다.",감성적인; 모던한; 시골감성; 아기자기한; 이쁜; 한적한,간식; 데이트; 드라이브; 디저트; 모임; 카페 투어,고소한; 달달한; 바삭한; 부드러운; 존맛; 진한,가족; 어린이 동반; 연인; 친구·지인; 혼자,디저트; 빵; 스콘; 커피; 케이크; 쿠키,대나무죽빵; 소금빵; 크로플,더치커피; 스페셜티 커피; 핸드드립,넓은 주차장; 매장 뒷편 주차; 주차 가능; 주차 공간 있음; 주차 편리
담양,아리에뜰,전남 담양군 용면 추월산로 997,126.99826504766,35.4030953153517,http://place.map.kakao.com/499766228,"추월산과 담양호의 아름다운 뷰를 자랑하는 아리에뜰은 다양한 디저트와 음료를 즐길 수 있는 카페입니다. 2층으로 구성되어 있으며, 팥 인절미 빙수, 조각 케이크, 베이글 등 다채로운 메뉴를 맛볼 수 있습니다. 카페 내부와 정원, 창밖 풍경이 어우러져 여유로운 시간을 보내기 좋습니다.",감성적인; 넓은; 아기자기한; 아름다운; 여유로운; 전망좋은,디저트; 모임; 뷰감상; 친구·지인; 카페 투어; 휴식,다양한; 달콤한; 맛있는,가족; 어린이 동반; 연인; 친구·지인,베이글; 아이스크림; 쥬스; 케이크; 팥 인절미 빙수; 허니브레드,베이글; 조각 케이크; 팥 인절미 빙수,아메리카노,가게 앞 주차장
담양,모놀모놀키즈브런치,전남 담양군 금성면 금성산성길 280,127.01960970625,35.3717636556834,http://place.map.kakao.com/658180189,"담양 심플레이스는 브런치, 샐러드, 논알콜 하이볼 등 다양한 메뉴와 함께 커피, 에이드, 주스, 수제차, 디저트, 베이커리 등을 즐길 수 있는 곳입니다. 키즈 케어존으로 운영되어 아이 동반 가족이 방문하기 좋으며, 수족관, 키네틱 조명쇼 등의 볼거리도 함께 제공됩니다.",가족친화; 대형카페; 이색적인; 키즈프렌들리,가족 외출; 디저트; 브런치; 카페 투어,달달한; 담백한; 신선한,가족; 반려동물 동반; 어린이 동반,디저트; 브런치; 에이드; 주스; 커피; 케이크,대통치즈케이크; 마카롱; 케이크; 타르트,납작복숭아주스; 라떼; 수박주스; 아메리카노,주차 가능
담양,유어브런치 본촌점,광주 북구 양산택지로 108,126.882903809451,35.2154884244768,http://place.map.kakao.com/1509801056,"검색해서 찾아간 남양주 보나리베 카페는 분위기가 좋았으며, 브런치와 디저트를 즐길 수 있습니다. 넓은 공간과 큰 테이블이 특징이며, 힐링하기 좋은 곳입니다.",넓은 공간; 분위기 좋은,디저트; 브런치; 힐링,,친구·지인,디저트; 브런치,,,정보 없음
담양,삼소,광주 북구 삼소로 352,126.87148829127146,35.24100844885475,http://place.map.kakao.com/414318808,,,,,,,,,
담양,105브런치카페,광주 북구 호동로 36,126.91645380133104,35.175076974730445,http://place.map.kakao.com/1115722652,"담양 지역의 브런치 카페들은 다양하고 맛있는 브런치 메뉴와 디저트를 제공하며, 넓고 편안한 공간과 좋은 전망을 자랑합니다. 일부 카페는 반려동물 동반이 가능하며, 모든 연령대가 즐길 수 있는 편안한 분위기를 갖추고 있습니다.",고즈넉한; 넓은; 아늑한; 유럽 감성; 이색적인; 편안한,데이트; 디저트; 브런치; 식사; 카페 투어; 커피,건강한; 달달한; 담백한; 맛있는; 신선한; 자극적이지 않은,가족; 반려동물 동반; 어린이 동반; 연인; 친구·지인,디저트; 브런치; 샌드위치; 커피; 케이크; 파니니,구움과자; 디저트; 빙수,아메리카노; 에이드; 커피,전용 주차장 보유; 주차 가능
담양,루뇽로스터즈 컴퍼니,광주 북구 일곡마을로 158-1,126.891537222391,35.2100613187544,http://place.map.kakao.com/1008862493,"일곡동에 위치한 루뇽로스터즈컴퍼니는 힙한 인테리어와 다양한 브런치, 디저트 메뉴를 제공하는 카페입니다. 특히 흑임자 크림라떼와 와플이 인기 있으며, 넓은 테라스와 감성적인 좌석 공간을 갖추고 있어 편안하게 시간을 보내기 좋습니다.",감성적인; 따뜻한; 예쁜; 편안한; 힙한,데이트; 디저트; 브런치; 식사; 카페 투어,고소한; 달달한; 맛있는; 신선한,가족; 어린이 동반; 연인; 친구·지인,디저트; 라떼; 밀크티; 빙수; 샐러드; 스무디,브라우니; 와플; 흑임자 아이스크림,슈크림 라떼; 커피; 호두마루 크림라떼; 흑임자 크림라떼,주차 불가
담양,부르빛,광주 북구 양산택지로37번길 48,126.87494580374,35.2102075627091,http://place.map.kakao.com/58156213,"담양의 소아르떼는 편안하고 감성적인 분위기에서 커피와 디저트를 즐길 수 있는 곳이며, 칠링스는 넓은 주차 공간과 쾌적한 실내를 갖추고 있어 여유로운 시간을 보내기 좋습니다.",감성적인; 넓은; 편안한,실내 데이트; 카페 투어; 휴식,달달한; 맛있는,어린이 동반; 연인,디저트; 커피,,,주차 가능; 주차 넓음
담양,다이브인커피,광주 북구 서방로19번길 9-4,126.915198066471,35.1739043378778,http://place.map.kakao.com/998092621,"광주 전대후문에 위치한 다이브인커피는 주택을 개조한 대형 카페로, 독특한 인테리어와 함께 조용하고 아늑한 분위기를 자랑합니다. 다양한 커피와 직접 만든 디저트, 특히 펌킨파이와 휘낭시에가 인기 메뉴입니다. 대학가에 위치해 비교적 저렴한 가격으로 커피와 디저트를 즐길 수 있습니다.",감성적인; 아늑한; 조용한; 주택 개조,데이트; 디저트; 수다; 카페 투어,달달한; 바삭한; 부드러운; 신선한,반려동물 동반; 연인; 친구·지인,라떼; 마카롱; 샌드위치; 아메리카노; 케이크; 크로플,에그타르트; 펌킨파이; 호두크럼블; 휘낭시에,아메리카노; 콜드브루,정보 없음
담양,커피베이 전남대학교점,광주 북구 용주로30번길 29,126.902338176563,35.1809459651277,http://place.map.kakao.com/1473003837,"커피베이에서는 맛있는 모카라떼와 디저트를 즐길 수 있으며, 특히 쿠키는 선물로도 좋다고 합니다. 동탄 지역 주민들에게 추천하며, 곧 오픈할 디저트 카페에도 기대를 모으고 있습니다.",캐주얼한; 편안한,간식; 디저트; 커피,고소한; 달달한,가족; 연인; 친구·지인; 혼자,디저트; 모카라떼; 쿠키,쿠키,모카라떼,정보 없음
담양,카페올리비아,광주 북구 호동로 3-6,126.913180467323,35.1748592485486,http://place.map.kakao.com/1182622184,"담양 디저트 카페들은 다양한 맛과 비주얼의 디저트와 음료를 제공하며, 친절한 서비스와 감성적인 인테리어가 특징입니다. 주차 및 방문 편의성을 갖춘 곳들이 많아 디저트 탐방이나 나들이 장소로 적합합니다.",감성적인; 모던한; 아기자기한; 이쁜; 조용한; 한옥,가족; 나들이; 데이트; 디저트; 친구·지인; 카페 투어,고소한; 달달한; 맛있는; 신선한; 존맛; 진한,가족; 반려동물 동반; 어린이 동반; 연인; 친구·지인,브라우니; 스콘; 아메리카노; 케이크; 쿠키; 파이,까망감빵; 브라우니; 솔낭시에,아메리카노,가게 앞 주차; 주차 가능; 주차 넓음
담양,지조있는카페,광주 광산구 신창로138번길 31-20,126.84138751538237,35.1967813724293,http://place.map.kakao.com/1414652841,"담양의 다양한 디저트 카페들은 아기자기하고 감성적인 분위기와 함께 통창으로 보이는 푸릇푸릇한 뷰를 자랑합니다. 크로플, 수플레 케이크, 밤 디저트 등 다채로운 메뉴를 맛볼 수 있으며, 가족, 연인, 친구와 함께 여유로운 시간을 보내기 좋습니다.",감성적인; 아늑한; 이국적인; 조용한; 편안한; 한옥,가족 나들이; 데이트; 디저트; 수다; 카페 투어; 휴식,고소한; 달달한; 담백한; 바삭한; 신선한; 진한,가족; 반려동물 동반; 어린이 동반; 연인; 친구·지인; 혼자,마카롱; 샌드위치; 수플레; 아메리카노; 케이크; 크로플,까눌레; 밤 디저트; 소금빵; 수플레 케이크; 크로플; 휘낭시에,아메리카노; 커피,정보 없음; 주차 가능
담양,후드,광주 북구 우치로 60,126.91255601988964,35.17263605243246,http://place.map.kakao.com/1606753237,"담양에 위치한 이 카페는 진한 마스카포네 치즈와 에스프레소 시트가 조화로운 티라미수가 시그니처 메뉴로 인기가 많습니다. 훌륭한 디저트와 함께 감각적인 인테리어, 아름다운 뷰를 즐길 수 있습니다.",감성적인; 아름다운 뷰,데이트; 디저트; 카페 투어,달콤한; 진한; 촉촉한,가족; 연인; 친구·지인,커피; 케이크; 티라미수,티라미수,,정보 없음
담양,커피베이 광주신안점,광주 북구 태봉로 71,126.90628980077774,35.16333476012133,http://place.map.kakao.com/375996460,커피베이 신안점은 24시간 영업하며 디저트 메뉴가 맛있기로 알려져 있습니다. 방문객들은 디저트에 대해 긍정적인 평가를 남겼습니다. 배달도 가능합니다.,편안한,디저트; 카페 투어,맛있는,가족; 친구·지인,디저트; 커피,디저트; 쿠키,커피,주차 가능
담양,아필코 드메르점,광주 광산구 임방울대로 549,126.82183389224024,35.208010264891094,http://place.map.kakao.com/473110129,"아필코는 브런치와 디저트, 음료를 판매하는 유명 카페로, 다양한 지점을 운영하고 있습니다. 특히 디저트 메뉴가 맛있다는 평가가 많으며, 깔끔한 화장실 등 서비스도 만족스럽습니다.",깔끔한; 넓은; 분위기 좋은; 편안한,디저트; 브런치; 수다; 카페 투어,달달한; 맛있는; 진한,가족; 연인; 친구·지인,디저트; 브런치; 샌드위치; 음료; 케이크; 크로플,브라우니; 치즈스콘; 크로플,,정보 없음
담양,반달캔커피,광주 북구 자미로66번길 50,126.907348018814,35.1709754859315,http://place.map.kakao.com/483111852,"반달커피는 다양한 수제 디저트와 캔커피를 판매하며, 단체 주문 및 테이크아웃이 가능하다. 특히 아침 시간대에는 음료 주문 시 토스트가 무료로 제공되는 이벤트를 진행한다. 매장은 깔끔하며, 피크닉이나 답례품으로 활용하기 좋은 메뉴들을 갖추고 있다.",감성적인; 깔끔한; 편안한,답례품; 디저트; 카페 투어; 테이크아웃; 피크닉,고소한; 달달한; 신선한,가족; 친구·지인; 혼자,마카롱; 샌드위치; 캔커피; 케이크; 토스트; 휘낭시에,마카롱; 반달이 슈크림; 휘낭시에,아메리카노; 캔커피,가게 앞 주차
담양,크램드밀,광주 동구 동명로26번길 17,126.925724364915,35.1510933462819,http://place.map.kakao.com/2069589963,"동명동에 위치한 브런치 카페 크램드밀은 주택을 개조한 포근한 분위기에서 브런치, 커피, 디저트를 즐길 수 있는 곳입니다. 특히 연말 시즌에는 예쁜 크리스마스 트리 장식이 있어 감성적인 분위기를 더하며, 통창으로 보이는 푸릇한 정원 뷰도 매력적입니다. 애완동물 동반도 가능하며, 아기의자도 구비되어 있습니다.",감성적인; 시즌별 장식; 아늑한; 주택 개조; 포근한,데이트; 디저트; 브런치; 애견 동반; 커피,달달한; 담백한; 진한,가족; 반려동물 동반; 어린이 동반; 연인; 친구·지인,라떼; 브런치; 스콘; 아메리카노; 주스; 케이크,브라우니; 잼스콘,말차크림라떼; 아메리카노; 한라봉에이드,ACC 주차장 1시간 가능
담양,커프커프하우스 동명점,광주 동구 동명로14번길 5,126.923735451591,35.1502691683852,http://place.map.kakao.com/380455331,"커프커프하우스 동명점은 동명동에 위치한 분위기 좋은 디저트 카페로, 직접 만든 신선한 디저트와 음료를 맛볼 수 있습니다. 특히 그라니따, 프렌치토스트, 티라미수, 치즈케이크 등이 인기 메뉴이며, 늦게까지 운영하여 이야기 나누기 좋습니다.",감성적인; 깔끔한; 아늑한; 조용한; 편안한; 힙한,데이트; 디저트; 수다; 카페 투어; 커피,고소한; 달달한; 부드러운; 새콤한; 신선한; 진한,가족; 연인; 친구·지인; 혼자,그라니따; 아메리카노; 치즈케이크; 토스트; 티라미수; 프렌치토스트,그라니따; 치즈케이크; 프렌치토스트,아이스크림라떼,주차 가능
담양,해브어굿데이,광주 동구 산수길 11-10,126.92722135106,35.1547231318623,http://place.map.kakao.com/877071345,,,,,,,,,
담양,아베크투와,광주 동구 동계천로95번길 8-1,126.922106289207,35.1520068567792,http://place.map.kakao.com/137038805,"동명동에 위치한 카페 아베크투와는 아늑하고 조용한 분위기에서 맛있는 디저트와 브런치를 즐길 수 있는 곳입니다. 특히 제철 과일을 이용한 케이크와 산도가 인기가 많으며, 애견 동반 및 키즈 존도 마련되어 있어 누구나 편안하게 방문할 수 있습니다.",감성적인; 따뜻한; 아늑한; 유럽풍; 조용한,데이트; 디저트; 브런치; 수다; 애견동반; 카페 투어,달달한; 상큼한; 신선한; 정갈한,가족; 반려동물 동반; 어린이 동반; 연인; 친구·지인,브런치; 산도; 샌드위치; 스콘; 커피; 케이크,딸기케이크; 후르츠산도,아메리카노; 카페라떼,정보 없음
담양,카페허니스,광주 동구 독립로264번길 6,126.911761347958,35.1542567709587,http://place.map.kakao.com/26922407,"딥그린과 우드톤 인테리어가 멋스러운 허니스쿠키는 다양한 종류의 수제 쿠키와 스콘을 맛볼 수 있는 디저트 카페입니다. 답례품이나 선물용으로도 좋으며, 주차도 가능합니다.",감성적인; 깔끔한; 멋스러운; 세련된,답례품; 디저트; 선물; 커피,고소한; 달달한; 맛있는; 신선한,가족; 연인; 친구·지인; 혼자,스콘; 음료; 커피; 쿠키,스콘; 쿠키,,지하 주차 가능
담양,카페아필코 롯데백화점 광주점,광주 동구 독립로 268,126.91214925060355,35.15482490969329,http://place.map.kakao.com/641442041,"아필코는 월계동 본점, 롯데백화점 광주점, 드메르점 등 여러 지점을 운영하는 디저트 카페입니다. 픽업대 옆에서 앞접시, 커트러리, 냅킨, 식수, 시럽을 셀프로 이용할 수 있습니다. 롯데백화점 광주점 내에 위치하며, 전화번호는 062-221-1091입니다.",깔끔한,간단한 식사; 디저트,,,디저트,,,백화점 주차장 이용
담양,타인의취향,광주 동구 지산로 49,126.932445315857,35.1482579927641,http://place.map.kakao.com/347642801,,,,,,,,,
담양,끌림,광주 광산구 왕버들로 113-2,126.824391089302,35.2016342345648,http://place.map.kakao.com/14724276,담양의 '슬담 카페'는 작은 하늘창으로 보이는 멋스러운 뷰가 매력적인 곳입니다. 인기 메뉴인 다쿠아즈 어쩌구 케이크는 매우 맛있다는 평이 있습니다.,멋스러운; 뷰좋은,디저트; 수다; 카페 투어,맛있는,연인; 친구·지인,디저트; 커피; 케이크,다쿠아즈 케이크,,정보 없음
담양,설가당,광주 동구 동계천로 118,126.922860652231,35.1504155364343,http://place.map.kakao.com/1336464285,,,,,,,,,
담양,파스쿠찌 광주용전DT점,광주 북구 우치로 948,126.886296472755,35.2446511865653,http://place.map.kakao.com/1967710978,"광주 용전동에 위치한 이 카페는 3층 규모의 넓은 공간과 깔끔한 인테리어를 자랑합니다. 다양한 디저트와 브런치 메뉴를 제공하며, 담양으로 향하는 길목에 있어 접근성이 좋습니다.",깔끔한; 넓은; 여유로운,데이트; 디저트; 브런치; 카페 투어,다양한; 신선한,가족; 연인; 친구·지인,디저트; 브런치; 빙수; 빵; 커피; 케이크,밤식빵; 소금빵; 크림브륄레,라떼; 아메리카노,주차 가능
